[
  {
    "uuid": "74c8150c-05f4-4094-b913-0bd157850472",
    "name": "Gabriel's Gate",
    "address": "145, Allen Street",
    "geo_location": "POINT(-78.8754776 42.8996579)",
    "phone": "+1-716-886-0602",
    "email": "freewebsitecopyright@gmail.com",
    "website": "https://gabriels-gate.weeblyte.com/",
    "opening_hours": "Mo-Th,Su 11:30-24:00; Fr-Sa 11:30-01:00",
    "inserted_at": "2025-11-28T20:05:07.455126+00:00",
    "updated_at": "2025-11-28T20:05:07.455126+00:00",
    "latitude": 42.8996579,
    "longitude": -78.8754776,
    "url_slug": "gabriels-gate"
  },
  {
    "uuid": "db8bef31-a5fc-404c-9656-cd87fe0ccf2d",
    "name": "Pastabilities",
    "address": "311, South Franklin Street, Syracuse, NY, 13202",
    "geo_location": "POINT(-76.155389 43.0483095)",
    "phone": "+1-315-474-1153",
    "email": "info@pastabilities.com",
    "website": "https://www.pastabilities.com",
    "opening_hours": "Mo-Fr 11:00-14:00; Su-Th 16:00-21:00; Fr-Sa 16:00-22:00",
    "inserted_at": "2025-11-28T20:05:07.455126+00:00",
    "updated_at": "2025-11-28T20:05:07.455126+00:00",
    "latitude": 43.0483095,
    "longitude": -76.155389,
    "url_slug": "pastabilities"
  },
  {
    "uuid": "a4b78935-5071-4606-af5f-6ff5526cf0ba",
    "name": "Little Alley",
    "address": "550, 3rd Avenue, New York, NY, 10016",
    "geo_location": "POINT(-73.9771526 40.7473845)",
    "phone": "+1-646-998-3976",
    "email": "littlealleynyc@gmail.com",
    "website": "https://www.littlealley.nyc",
    "opening_hours": "Mo-Th 11:30-15:00,17:00-22:00; Fr-Sa 11:30-15:00,17:00-22:30; Su 11:30-15:00,17:00-22:00",
    "inserted_at": "2025-11-28T20:05:07.455126+00:00",
    "updated_at": "2025-11-28T20:05:07.455126+00:00",
    "latitude": 40.7473845,
    "longitude": -73.9771526,
    "url_slug": "little-alley"
  },
  {
    "uuid": "3a2e2980-19e9-4fa4-a4e3-5946c88a2de9",
    "name": "Mikado",
    "address": "177, Atlantic Avenue, Brooklyn, NY, 11201",
    "geo_location": "POINT(-73.9938187 40.6902604)",
    "phone": "+1-212-381-1388",
    "email": "info@linhospitality.com",
    "website": "http://www.newmikadonyc.com/",
    "opening_hours": "Mo-Th 10:30-15:30,17:00-22:00; Fr 10:30-23:00; Sa 12:00-23:00; Su 12:00-22:00",
    "inserted_at": "2025-11-28T20:05:07.455126+00:00",
    "updated_at": "2025-11-28T20:05:07.455126+00:00",
    "latitude": 40.6902604,
    "longitude": -73.9938187,
    "url_slug": "mikado"
  },
  {
    "uuid": "90cd74c7-f468-4e27-8ec4-41f644f4cca3",
    "name": "Freemans",
    "address": "Freeman Alley, New York, 10002",
    "geo_location": "POINT(-73.9924423 40.7219891)",
    "phone": "+1-212-420-0012",
    "email": "info@freemansrestaurant.com",
    "website": "https://www.freemansrestaurant.com",
    "opening_hours": "Mo-Th 11:00-23:00; Fr 11:00-02:00; Sa 10:00-02:00; Su 10:00-23:00",
    "inserted_at": "2025-11-28T20:05:07.455126+00:00",
    "updated_at": "2025-11-28T20:05:07.455126+00:00",
    "latitude": 40.7219891,
    "longitude": -73.9924423,
    "url_slug": "freemans"
  },
  {
    "uuid": "c80bf988-b140-4a85-ac96-a573a6b501d4",
    "name": "La Fiesta",
    "address": "73, Allen Street",
    "geo_location": "POINT(-78.8727533 42.8995297)",
    "phone": "+1-716-262-0225",
    "email": "fiestabuffalo@gmail.com",
    "website": "https://lafiestabuffalo.com/",
    "opening_hours": "Mo 11:00-22:00; Tu-Th 11:00-23:00; Fr 11:00-02:00; Sa 12:00-02:00; Su 12:00-22:00",
    "inserted_at": "2025-11-28T20:05:07.455126+00:00",
    "updated_at": "2025-11-28T20:05:07.455126+00:00",
    "latitude": 42.8995297,
    "longitude": -78.8727533,
    "url_slug": "la-fiesta"
  },
  {
    "uuid": "da14a705-3284-4230-a03b-eb24edbf88f3",
    "name": "Sangam",
    "address": "424, Eddy Street, Ithaca, NY, 14850",
    "geo_location": "POINT(-76.4876165 42.4421961)",
    "phone": "+1-607-273-1006",
    "email": "info@sangamindianrestaurantithaca.com",
    "website": "https://sangamindianrestaurantithaca.com/",
    "opening_hours": "11:30-15:00; 17:00-22:00",
    "inserted_at": "2025-11-28T20:05:07.455126+00:00",
    "updated_at": "2025-11-28T20:05:07.455126+00:00",
    "latitude": 42.4421961,
    "longitude": -76.4876165,
    "url_slug": "sangam"
  },
  {
    "uuid": "693f8489-6f20-434d-b336-187fb8a9e826",
    "name": "Legends Pizza",
    "address": "96, Wolf Road, Albany, NY, 12205",
    "geo_location": "POINT(-73.813066 42.7173648)",
    "phone": "+1-518-992-1111",
    "email": "ORDERS@LEGENDSPIZZA.PLUS",
    "website": "https://www.legendspizza.plus",
    "opening_hours": "Mo, Tu, We, Th 10:00 - 23:00; Fr, Sa 10:00 - 01:00; Su 10:00 - 23:00",
    "inserted_at": "2025-11-28T20:05:07.455126+00:00",
    "updated_at": "2025-11-28T20:05:07.455126+00:00",
    "latitude": 42.7173648,
    "longitude": -73.813066,
    "url_slug": "legends-pizza"
  },
  {
    "uuid": "bac76db0-a3cb-426d-a443-51ccb5721a9c",
    "name": "Moosewood Restaurant",
    "address": "215, North Cayuga Street, Ithaca, NY, 14850",
    "geo_location": "POINT(-76.4986321 42.4406028)",
    "phone": "+1-607-273-9610",
    "email": "moose@moosewoodrestaurant.com",
    "website": "https://www.moosewoodrestaurant.com/",
    "opening_hours": "We-Su 11:30-14:30, 17:00-21:00",
    "inserted_at": "2025-11-28T20:05:07.455126+00:00",
    "updated_at": "2025-11-28T20:05:07.455126+00:00",
    "latitude": 42.4406028,
    "longitude": -76.4986321,
    "url_slug": "moosewood-restaurant"
  },
  {
    "uuid": "f6800682-6ca9-4ea6-9f5b-375779786aa7",
    "name": "Carnegie Diner & Cafe",
    "address": "205, West 57th Street, New York, NY, 10019",
    "geo_location": "POINT(-73.9801162 40.765737)",
    "phone": "+1-212-664-1001",
    "email": "Hello@CarnegieDiner.com",
    "website": "https://www.carnegiediner.com/location/carnegie-diner-central-park/",
    "opening_hours": "Su-Th 07:00-24:00; Fr-Sa 07:00-01:00",
    "inserted_at": "2025-11-28T20:05:07.455126+00:00",
    "updated_at": "2025-11-28T20:05:07.455126+00:00",
    "latitude": 40.765737,
    "longitude": -73.9801162,
    "url_slug": "carnegie-diner-cafe"
  },
  {
    "uuid": "670f0f16-5471-43f3-a49f-9c8a27f25082",
    "name": "The Merc",
    "address": "430, Broadway, Saratoga Springs, NY, 12866",
    "geo_location": "POINT(-73.7850283 43.0820606)",
    "phone": "+1-518-886-8479",
    "email": "gm@themercsaratoga.com",
    "website": "https://www.themercsaratoga.com",
    "opening_hours": "We-Th 10:00-21:00; Fr 10:00-21:30; Sa 09:00-21:30; Su 09:00-21:00",
    "inserted_at": "2025-11-28T20:05:07.455126+00:00",
    "updated_at": "2025-11-28T20:05:07.455126+00:00",
    "latitude": 43.0820606,
    "longitude": -73.7850283,
    "url_slug": "the-merc"
  },
  {
    "uuid": "72b2eb89-23bd-4206-adb8-f0acf1f38a51",
    "name": "Saigon Spring",
    "address": "1683, Route 9, Clifton Park",
    "geo_location": "POINT(-73.765505 42.8613438)",
    "phone": "+1-518-982-0425",
    "email": "saigonspring@gmail.com",
    "website": "http://www.saigonspring.com/",
    "opening_hours": "Tu-Su 11:00-15:00,16:00-21:00, Fr,Sa 21:00-22:00",
    "inserted_at": "2025-11-28T20:05:07.455126+00:00",
    "updated_at": "2025-11-28T20:05:07.455126+00:00",
    "latitude": 42.8613438,
    "longitude": -73.765505,
    "url_slug": "saigon-spring"
  },
  {
    "uuid": "14a956e0-4d1a-4600-8e10-0548d5c5fca3",
    "name": "Ferrari's Ristorante",
    "address": "1254, Congress Street, Schenectady, NY, 12303",
    "geo_location": "POINT(-73.9505144 42.7933076)",
    "phone": "+1-518-382-8865",
    "email": "ristoranteferraris@gmail.com",
    "website": "https://www.ferrarisristorante.com/",
    "opening_hours": "Mo-Th 11:30-21:00; Fr 11:00-22:00; Sa 16:00-22:00",
    "inserted_at": "2025-11-28T20:05:07.455126+00:00",
    "updated_at": "2025-11-28T20:05:07.455126+00:00",
    "latitude": 42.7933076,
    "longitude": -73.9505144,
    "url_slug": "ferraris-ristorante"
  },
  {
    "uuid": "b80ffca5-fbb9-4d34-9605-ca0c0f5ca40a",
    "name": "The Fox",
    "address": "2224, Frederick Douglass Boulevard, New York, NY, 10026",
    "geo_location": "POINT(-73.9534135 40.8068012)",
    "phone": "+1-212-500-6175",
    "email": "info@thefoxharlem.com",
    "website": "https://thefoxharlem.com/",
    "opening_hours": "Mo-Th 12:00-24:00; Fr 12:00-02:00; Sa 10:30-02:00; Su 10:30-24:00",
    "inserted_at": "2025-11-28T20:05:07.455126+00:00",
    "updated_at": "2025-11-28T20:05:07.455126+00:00",
    "latitude": 40.8068012,
    "longitude": -73.9534135,
    "url_slug": "the-fox"
  },
  {
    "uuid": "3722b68f-a9c8-45a8-8be7-4fdae6aa0801",
    "name": "Woodrow Diner",
    "address": "655, Rossville Avenue, Staten Island, NY, 10309",
    "geo_location": "POINT(-74.2066515 40.5428962)",
    "phone": "+1-718-984-7373",
    "email": "info@woodrowdinersi.com",
    "website": "https://www.woodrowdinersi.com/",
    "opening_hours": "Mo-Th 07:00-22:00; Fr,Sa 07:00-23:00; Su 07:00-21:00",
    "inserted_at": "2025-11-28T20:05:07.455126+00:00",
    "updated_at": "2025-11-28T20:05:07.455126+00:00",
    "latitude": 40.5428962,
    "longitude": -74.2066515,
    "url_slug": "woodrow-diner"
  },
  {
    "uuid": "c1207cce-608e-43b4-9bc7-bd784815b4c1",
    "name": "Shmoné",
    "address": "61, West 8th Steet, 10011",
    "geo_location": "POINT(-73.9990673 40.7335075)",
    "phone": "+1-646-438-9815",
    "email": "contact@shmonenyc.com",
    "website": "https://www.shmonenyc.com",
    "opening_hours": "Mo-Sa 18:00-12:00",
    "inserted_at": "2025-11-28T20:05:07.455126+00:00",
    "updated_at": "2025-11-28T20:05:07.455126+00:00",
    "latitude": 40.7335075,
    "longitude": -73.9990673,
    "url_slug": "shmon"
  },
  {
    "uuid": "5ca87789-e268-4b6b-9556-71356431981f",
    "name": "Chu Ros Thai",
    "address": "1590, Lexington Avenue, 10029",
    "geo_location": "POINT(-73.9486313 40.7892539)",
    "phone": "+1-917-265-8432",
    "email": "churosthai@gmail.com",
    "website": "https://churosthainyc.com/",
    "opening_hours": "Mo-Su 11:00-22:00",
    "inserted_at": "2025-11-28T20:05:07.455126+00:00",
    "updated_at": "2025-11-28T20:05:07.455126+00:00",
    "latitude": 40.7892539,
    "longitude": -73.9486313,
    "url_slug": "chu-ros-thai"
  },
  {
    "uuid": "117fbc54-dcaf-4f6b-8654-bc58074f113d",
    "name": "The Lexington Social",
    "address": "1634, Lexington Avenue, 10029",
    "geo_location": "POINT(-73.9476244 40.7906645)",
    "phone": "+1-646-820-7013",
    "email": "hello@tlstapasbar.com",
    "website": "http://tlstapasbar.com",
    "opening_hours": "Mo-Fr 12:00-23:00; Sa, Su 11:00-23:00",
    "inserted_at": "2025-11-28T20:05:07.455126+00:00",
    "updated_at": "2025-11-28T20:05:07.455126+00:00",
    "latitude": 40.7906645,
    "longitude": -73.9476244,
    "url_slug": "the-lexington-social"
  },
  {
    "uuid": "2f71fa9c-ab22-45bb-98d4-8c66fef19777",
    "name": "Sipsteria",
    "address": "774, Amsterdam Avenue, New York, NY, 10025",
    "geo_location": "POINT(-73.969686 40.7953407)",
    "phone": "+1-917-388-2076",
    "email": "sip@sipsteria.com",
    "website": "https://www.sipsteria.com",
    "opening_hours": "Mo-Fr 07:00-23:00; Sa-Su 08:30-23:00",
    "inserted_at": "2025-11-28T20:05:07.455126+00:00",
    "updated_at": "2025-11-28T20:05:07.455126+00:00",
    "latitude": 40.7953407,
    "longitude": -73.969686,
    "url_slug": "sipsteria"
  },
  {
    "uuid": "8524e4af-9250-4e24-a7d0-685771b6da80",
    "name": "Laut",
    "address": "15, East 17th Street, New York, NY, 10003",
    "geo_location": "POINT(-73.991104 40.7375482)",
    "phone": "+1-212-206-8989",
    "email": "info@lautnyc.com",
    "website": "https://www.lautnyc.com/",
    "opening_hours": "Mo-Fr 11:30-22:30; Sa 14:00-22:30; Su 13:00-22:00",
    "inserted_at": "2025-11-28T20:05:07.455126+00:00",
    "updated_at": "2025-11-28T20:05:07.455126+00:00",
    "latitude": 40.7375482,
    "longitude": -73.991104,
    "url_slug": "laut"
  },
  {
    "uuid": "3bdb9ca0-8e50-43af-ac4d-38c514ebe567",
    "name": "Katz's Delicatessen",
    "address": "205, East Houston Street, New York, NY, 10002",
    "geo_location": "POINT(-73.987353 40.7223431)",
    "phone": "+1-212-254-2246",
    "email": "press@katzsdelicatessen.com",
    "website": "https://www.katzsdelicatessen.com",
    "opening_hours": "Mo-Th 08:00-22:15; Fr 08:00-24:00; Sa 24:00-24:00; Su 24:00-22:15",
    "inserted_at": "2025-11-28T20:05:07.455126+00:00",
    "updated_at": "2025-11-28T20:05:07.455126+00:00",
    "latitude": 40.7223431,
    "longitude": -73.987353,
    "url_slug": "katzs-delicatessen"
  },
  {
    "uuid": "7dd341d0-d64e-4357-98a3-e488ded7d58c",
    "name": "Rincón Melania",
    "address": "35-11, Queens Boulevard",
    "geo_location": "POINT(-73.929014 40.74475)",
    "phone": "+1-718-361-1905",
    "email": "rinconmelanianyc@gmail.com",
    "website": "https://rinconmelanianyc.com/",
    "opening_hours": "Mo-Th, Su 10:00-19:45; Fr, Sa 10:00-22:00",
    "inserted_at": "2025-11-28T20:05:07.455126+00:00",
    "updated_at": "2025-11-28T20:05:07.455126+00:00",
    "latitude": 40.74475,
    "longitude": -73.929014,
    "url_slug": "rincn-melania"
  },
  {
    "uuid": "2c03cbe9-63c8-41d0-a8e4-dd5711fc98b6",
    "name": "West Side Wok & Konata Sushi",
    "address": "691, Amsterdam Avenue, New York, NY, 10025",
    "geo_location": "POINT(-73.9713503 40.7923619)",
    "phone": "+1-212-222-2373",
    "email": "info@westsidewok.com",
    "website": "https://www.westsidewok.com",
    "opening_hours": "Mo-Th, Su; 11:00-23:00; Fr 11:00-15:00",
    "inserted_at": "2025-11-28T20:05:07.455126+00:00",
    "updated_at": "2025-11-28T20:05:07.455126+00:00",
    "latitude": 40.7923619,
    "longitude": -73.9713503,
    "url_slug": "west-side-wok-konata-sushi"
  },
  {
    "uuid": "380fe5aa-fa92-42da-99c1-4073dc60d48b",
    "name": "Bohemian Spirit Restaurant",
    "address": "321, East 73rd Street, 10021",
    "geo_location": "POINT(-73.9565904 40.769058)",
    "phone": "+1-212-861-1038",
    "email": "bsrnewyork@gmail.com",
    "website": "https://bohemianspiritrestaurant.com/",
    "opening_hours": "Mo 17:00-22:00; Tu-Fr 17:00-23:00; Sa 11:00-15:00, 17:00-23:00; Su 11:00-15:00, 17:00-22:00",
    "inserted_at": "2025-11-28T20:05:07.455126+00:00",
    "updated_at": "2025-11-28T20:05:07.455126+00:00",
    "latitude": 40.769058,
    "longitude": -73.9565904,
    "url_slug": "bohemian-spirit-restaurant"
  },
  {
    "uuid": "57b5043d-090e-4aae-8dcf-130db9645dae",
    "name": "Del Frisco's Double Eagle Steakhouse",
    "address": "1221, 6th Avenue, 10020",
    "geo_location": "POINT(-73.9816604 40.7593243)",
    "phone": "+1-212-575-5129",
    "email": "dfny@ldry.com",
    "website": "https://delfriscos.com/steakhouse/new-york/",
    "opening_hours": "Mo-Th 11:00-22:00; Fr 11:00-23:00; Sa 16:00-23:00; Su 16:00-22:00",
    "inserted_at": "2025-11-28T20:05:07.455126+00:00",
    "updated_at": "2025-11-28T20:05:07.455126+00:00",
    "latitude": 40.7593243,
    "longitude": -73.9816604,
    "url_slug": "del-friscos-double-eagle-steakhouse"
  },
  {
    "uuid": "5076f30c-afdb-4724-add0-a52241d6d4e3",
    "name": "Namkeen",
    "address": "338, Bedford Avenue, Brooklyn, NY, 11211",
    "geo_location": "POINT(-73.962479 40.7128479)",
    "phone": "+1-347-658-3383",
    "email": "hello@eatnamkeen.com",
    "website": "https://www.eatnamkeen.com/",
    "opening_hours": "Mo-Th 12:00-23:00, Fr-Sa 12:00-24:00, Su 12:00-23:00",
    "inserted_at": "2025-11-28T20:05:07.455126+00:00",
    "updated_at": "2025-11-28T20:05:07.455126+00:00",
    "latitude": 40.7128479,
    "longitude": -73.962479,
    "url_slug": "namkeen"
  },
  {
    "uuid": "8f60dfc8-38e2-4986-953b-12594491f5c5",
    "name": "Dani's House of Pizza",
    "address": "81-28, Lefferts Boulevard, Kew Gardens, NY, 11415",
    "geo_location": "POINT(-73.8305368 40.7089384)",
    "phone": "+1-718-846-2849",
    "email": "daniq910@newschool.edu",
    "website": "https://www.danishouseofpizza.com/",
    "opening_hours": "Mo-Su 13:00-23:00",
    "inserted_at": "2025-11-28T20:05:07.455126+00:00",
    "updated_at": "2025-11-28T20:05:07.455126+00:00",
    "latitude": 40.7089384,
    "longitude": -73.8305368,
    "url_slug": "danis-house-of-pizza"
  },
  {
    "uuid": "44277b9d-32f1-4f45-8f90-c854a1fbce4b",
    "name": "Calexico",
    "address": "645, Manhattan Avenue",
    "geo_location": "POINT(-73.9511746 40.724188)",
    "phone": "+1-347-763-2129",
    "email": "greenpoint@calexico.com",
    "website": "https://www.calexico.com/location/greenpoint/",
    "opening_hours": "11:30-22:00",
    "inserted_at": "2025-11-28T20:05:07.455126+00:00",
    "updated_at": "2025-11-28T20:05:07.455126+00:00",
    "latitude": 40.724188,
    "longitude": -73.9511746,
    "url_slug": "calexico"
  },
  {
    "uuid": "e1354597-e2c7-4531-93ce-7094cc345dcf",
    "name": "Fumo",
    "address": "2791, Broadway, New York, NY, 10025",
    "geo_location": "POINT(-73.9680501 40.8028091)",
    "phone": "+1-646-822-2921",
    "email": "uws@fumorestaurant.com",
    "website": "https://www.fumorestaurant.com/location/fumo-upper-west-side/",
    "opening_hours": "Su-Th 11:00-22:00; Fr-Sa 11:00-23:00",
    "inserted_at": "2025-11-28T20:05:07.455126+00:00",
    "updated_at": "2025-11-28T20:05:07.455126+00:00",
    "latitude": 40.8028091,
    "longitude": -73.9680501,
    "url_slug": "fumo"
  },
  {
    "uuid": "32f46887-9f38-4a25-a2c8-e9c9ea274b3c",
    "name": "The Laurels",
    "address": "231, 2nd Avenue, New York, NY, 10003",
    "geo_location": "POINT(-73.9850445 40.7325595)",
    "phone": "+1-646-398-9002",
    "email": "info@thelaurelsnyc.com",
    "website": "https://thelaurelsnyc.com",
    "opening_hours": "Mo 15:00-02:00, Tu-We 10:00-02:00, Th-Sa 10:00-04:00, Su 10:00-02:00",
    "inserted_at": "2025-11-28T20:05:07.455126+00:00",
    "updated_at": "2025-11-28T20:05:07.455126+00:00",
    "latitude": 40.7325595,
    "longitude": -73.9850445,
    "url_slug": "the-laurels"
  },
  {
    "uuid": "da304c4a-08af-44a0-a781-581805725fd6",
    "name": "Gennaro",
    "address": "665, Amsterdam Avenue, New York, NY, 10025",
    "geo_location": "POINT(-73.9718511 40.7916482)",
    "phone": "+1-212-665-5348",
    "email": "gennaro@gennaronyc.com",
    "website": "http://www.gennaronyc.com",
    "opening_hours": "Mo-Th 17:00-22:30; Fr-Sa 17:00-23:00",
    "inserted_at": "2025-11-28T20:05:07.455126+00:00",
    "updated_at": "2025-11-28T20:05:07.455126+00:00",
    "latitude": 40.7916482,
    "longitude": -73.9718511,
    "url_slug": "gennaro"
  },
  {
    "uuid": "097cee68-2f45-4b16-b6a2-cde370f83ec8",
    "name": "Felice",
    "address": "84, Montague Street, Brooklyn, 11201",
    "geo_location": "POINT(-73.9960575 40.6951317)",
    "phone": "+1-718-475-9877",
    "email": "montague@felicerestaurants.com",
    "website": "https://www.felicerestaurants.com/felice-montague",
    "opening_hours": "Mo-Fr 12:00-22:00; Sa-Su 11:00-22:00",
    "inserted_at": "2025-11-28T20:05:07.455126+00:00",
    "updated_at": "2025-11-28T20:05:07.455126+00:00",
    "latitude": 40.6951317,
    "longitude": -73.9960575,
    "url_slug": "felice"
  },
  {
    "uuid": "2dce63d1-c6ca-4ee7-b533-b47c91850918",
    "name": "Joey's Pizzeria",
    "address": "200, Oak Hill Avenue, Endicott, NY, 13760",
    "geo_location": "POINT(-76.0500381 42.1110863)",
    "phone": "+1-607-484-9716",
    "email": "degennaros300@gmail.com",
    "website": "https://www.joeyspizzaendicott.com/",
    "opening_hours": "Tu-Sa 11:00-21:00; Su 16:00-21:00",
    "inserted_at": "2025-11-28T20:05:07.455126+00:00",
    "updated_at": "2025-11-28T20:05:07.455126+00:00",
    "latitude": 42.1110863,
    "longitude": -76.0500381,
    "url_slug": "joeys-pizzeria"
  },
  {
    "uuid": "29e06c16-b68d-4bd8-a0da-919be53dde6c",
    "name": "Moo Burger",
    "address": "240, Court Street, 11201",
    "geo_location": "POINT(-73.9944064 40.6858251)",
    "phone": "+1-718-246-8259",
    "email": "info@mooburger.net",
    "website": "http://mooburger.net",
    "opening_hours": "Mo-Th 12:00-21:00; Fr-Sa 12:00-22:00; Su 11:00-21:00",
    "inserted_at": "2025-11-28T20:05:07.455126+00:00",
    "updated_at": "2025-11-28T20:05:07.455126+00:00",
    "latitude": 40.6858251,
    "longitude": -73.9944064,
    "url_slug": "moo-burger"
  },
  {
    "uuid": "5e1ad2e2-1b66-432d-a9fd-4fd6e6209e2b",
    "name": "Viand",
    "address": "517, Columbus Avenue, New York, NY, 10024",
    "geo_location": "POINT(-73.9725709 40.7856099)",
    "phone": "+1-212-362-3333",
    "email": "viand@icloud.com",
    "website": "https://theviand.com",
    "opening_hours": "Mo-Fr 07:30-22:00; Sa-Su 07:00-22:00",
    "inserted_at": "2025-11-28T20:05:07.455126+00:00",
    "updated_at": "2025-11-28T20:05:07.455126+00:00",
    "latitude": 40.7856099,
    "longitude": -73.9725709,
    "url_slug": "viand"
  },
  {
    "uuid": "30752f3d-8eba-40d8-8efa-5826085c5ae6",
    "name": "Qanoon",
    "address": "180, 9th Avenue, New York, 10011",
    "geo_location": "POINT(-74.0020025 40.7452195)",
    "phone": "+1-646-843-9711",
    "email": "info@qanoonnyc.com",
    "website": "https://www.qanoonnyc.com",
    "opening_hours": "Mo-Fr 17:00-22:00; Sa, Su 10:00-15:00, 17:00-22:00",
    "inserted_at": "2025-11-28T20:05:07.455126+00:00",
    "updated_at": "2025-11-28T20:05:07.455126+00:00",
    "latitude": 40.7452195,
    "longitude": -74.0020025,
    "url_slug": "qanoon"
  },
  {
    "uuid": "c1661dd1-acd6-445c-ba50-a7a582f423d5",
    "name": "Tarallucci e Vino",
    "address": "475, Columbus Avenue, New York, NY, 10024",
    "geo_location": "POINT(-73.973482 40.7843578)",
    "phone": "+1-212-362-5454",
    "email": "rita@taralluccievino.net",
    "website": "https://www.taralluccievino.net/upper-west-side-location",
    "opening_hours": "Mo-Su 08:00-23:00",
    "inserted_at": "2025-11-28T20:05:07.455126+00:00",
    "updated_at": "2025-11-28T20:05:07.455126+00:00",
    "latitude": 40.7843578,
    "longitude": -73.973482,
    "url_slug": "tarallucci-e-vino"
  },
  {
    "uuid": "3bb6e6fd-33bc-4ba5-beea-a3b0ef60b7e3",
    "name": "Milkstand Breakfast & Lunch",
    "address": "215, North Meadow Street, Ithaca, 14850",
    "geo_location": "POINT(-76.5080695 42.4407124)",
    "phone": "+1-607-273-1691",
    "email": "milkstand.ny@gmail.com",
    "website": "https://www.ithacamilkstand.com/",
    "opening_hours": "Mo-Su 08:00-15:30",
    "inserted_at": "2025-11-28T20:05:07.455126+00:00",
    "updated_at": "2025-11-28T20:05:07.455126+00:00",
    "latitude": 42.4407124,
    "longitude": -76.5080695,
    "url_slug": "milkstand-breakfast-lunch"
  },
  {
    "uuid": "721686f9-8d95-466e-a0bd-13a4407c0350",
    "name": "Golden Unicorn",
    "address": "18, East Broadway, New York, NY, 10002",
    "geo_location": "POINT(-73.9970903 40.7136218)",
    "phone": "+1-212-941-0911",
    "email": "goldenunicornny@yahoo.com",
    "website": "https://www.goldenunicornrestaurant.com/",
    "opening_hours": "Mo-Su 10:00-22:00",
    "inserted_at": "2025-11-28T20:05:07.455126+00:00",
    "updated_at": "2025-11-28T20:05:07.455126+00:00",
    "latitude": 40.7136218,
    "longitude": -73.9970903,
    "url_slug": "golden-unicorn"
  },
  {
    "uuid": "76817541-1ff1-45a6-baad-3b14789208bc",
    "name": "Myrtle Thai",
    "address": "438, Myrtle Avenue, 11205",
    "geo_location": "POINT(-73.9680559 40.6930747)",
    "phone": "+1-718-422-1142",
    "email": "myrtlethai@hotmail.com",
    "website": "https://www.myrtlethaibk.com",
    "opening_hours": "Mo-Su 12:00-15:45,17:00-22:00",
    "inserted_at": "2025-11-28T20:05:07.455126+00:00",
    "updated_at": "2025-11-28T20:05:07.455126+00:00",
    "latitude": 40.6930747,
    "longitude": -73.9680559,
    "url_slug": "myrtle-thai"
  },
  {
    "uuid": "cb49a15f-0f26-42da-8473-fee1a215b2b7",
    "name": "6 Restaurant",
    "address": "481, Court Street, 11231",
    "geo_location": "POINT(-73.9986186 40.6763558)",
    "phone": "+1-718-766-1112",
    "email": "info@6restaurant.com",
    "website": "https://6restaurant.com",
    "opening_hours": "Tu-Sa 17:30-23:00",
    "inserted_at": "2025-11-28T20:05:07.455126+00:00",
    "updated_at": "2025-11-28T20:05:07.455126+00:00",
    "latitude": 40.6763558,
    "longitude": -73.9986186,
    "url_slug": "6-restaurant"
  },
  {
    "uuid": "fc3f8677-dd87-4520-a4a6-6e0b83ab292e",
    "name": "Henry's End",
    "address": "72, Henry Street, Brooklyn, 11201",
    "geo_location": "POINT(-73.9925774 40.6986971)",
    "phone": "+1-718-834-1776",
    "email": "henrysend@gmail.com",
    "website": "https://www.henrysend.com",
    "opening_hours": "Tu-Th 17:00-21:00; Fr-Sa 17:00-21:30",
    "inserted_at": "2025-11-28T20:05:07.455126+00:00",
    "updated_at": "2025-11-28T20:05:07.455126+00:00",
    "latitude": 40.6986971,
    "longitude": -73.9925774,
    "url_slug": "henrys-end"
  },
  {
    "uuid": "f71f98ec-a285-4f66-9aaf-7d70daf0e591",
    "name": "Bistro 197",
    "address": "197, West 1st Street, NY, 13126",
    "geo_location": "POINT(-76.5107792 43.4561479)",
    "phone": "+1-315-343-2930",
    "email": "bistro197@gmail.com",
    "website": "http://www.bistro197.com",
    "opening_hours": "Tu-Fr 11:30-14:30,17:00-21:00; Sa 17:00-21:00",
    "inserted_at": "2025-11-28T20:05:07.455126+00:00",
    "updated_at": "2025-11-28T20:05:07.455126+00:00",
    "latitude": 43.4561479,
    "longitude": -76.5107792,
    "url_slug": "bistro-197"
  },
  {
    "uuid": "788746c9-d4af-41ae-a49f-698432a768a3",
    "name": "Port Sa'id",
    "address": "88, King Street, New York, NY, 10014",
    "geo_location": "POINT(-74.0070286 40.7279023)",
    "phone": "+1-212-256-0841",
    "email": "contact@portsaidnyc.com",
    "website": "https://www.portsaidnyc.com/",
    "opening_hours": "Mo-Tu 17:00-22:00; We-Th 17:00-23:00; Fr 17:00-01:00; Sa 11:00-15:00, 17:00-01:00",
    "inserted_at": "2025-11-28T20:05:07.455126+00:00",
    "updated_at": "2025-11-28T20:05:07.455126+00:00",
    "latitude": 40.7279023,
    "longitude": -74.0070286,
    "url_slug": "port-said"
  },
  {
    "uuid": "bebd2198-4591-495f-8b49-ad64fd3dcc3c",
    "name": "The Long Island Bar",
    "address": "110, Atlantic Avenue, 11201",
    "geo_location": "POINT(-73.9964304 40.6906369)",
    "phone": "+1-718-625-8908",
    "email": "info@thelongislandbar.com",
    "website": "http://thelongislandbar.com/",
    "opening_hours": "Tu-Fr 17:00-24:00; Sa-Su 14:00-24:00",
    "inserted_at": "2025-11-28T20:05:07.455126+00:00",
    "updated_at": "2025-11-28T20:05:07.455126+00:00",
    "latitude": 40.6906369,
    "longitude": -73.9964304,
    "url_slug": "the-long-island-bar"
  },
  {
    "uuid": "1c2a43ee-b381-47d5-9eda-9f09784711ca",
    "name": "Gari Columbus",
    "address": "370, Columbus Avenue, New York, NY, 10023",
    "geo_location": "POINT(-73.976285 40.7811731)",
    "phone": "+1-212-362-4816",
    "email": "info@sushiofgari.com",
    "website": "https://www.sushiofgari.com",
    "opening_hours": "Mo-Fr 12:00-14:15, 17:00-21:45; Sa-Su 12:00-21:45",
    "inserted_at": "2025-11-28T20:05:07.455126+00:00",
    "updated_at": "2025-11-28T20:05:07.455126+00:00",
    "latitude": 40.7811731,
    "longitude": -73.976285,
    "url_slug": "gari-columbus"
  },
  {
    "uuid": "808c5ea9-2413-4de2-aa45-acfdb4d9336a",
    "name": "Tacqueria 86",
    "address": "210, West 94th Street, New York, NY, 10025",
    "geo_location": "POINT(-73.9721553 40.7929735)",
    "phone": "+1-917-675-7727",
    "email": "admin@taqueria86.com",
    "website": "https://www.taqueria86.com",
    "opening_hours": "Mo-We 15:00-22:00; Th-Sa 12:00-22:00; Su 12:00-21:00",
    "inserted_at": "2025-11-28T20:05:07.455126+00:00",
    "updated_at": "2025-11-28T20:05:07.455126+00:00",
    "latitude": 40.7929735,
    "longitude": -73.9721553,
    "url_slug": "tacqueria-86"
  },
  {
    "uuid": "8239e450-5a3b-4595-8f27-558106c4b2be",
    "name": "Calaveras Corner",
    "address": "936, Amsterdam Avenue, New York, NY, 10025",
    "geo_location": "POINT(-73.9657815 40.8006621)",
    "phone": "+1-551-291-2258",
    "email": "impallari@gmail.com",
    "website": "https://calaverascorner.com",
    "opening_hours": "Mo-We 12:00-24:00; Th 12:00-02:00; Fr 12:00-03:30; Sa 11:00-03:00; Su 11:00-24:00",
    "inserted_at": "2025-11-28T20:05:07.455126+00:00",
    "updated_at": "2025-11-28T20:05:07.455126+00:00",
    "latitude": 40.8006621,
    "longitude": -73.9657815,
    "url_slug": "calaveras-corner"
  },
  {
    "uuid": "ab347cd8-92af-4eca-a736-9be6f981d42b",
    "name": "Cozy Soup 'n' Burger",
    "address": "739, Broadway, 10003",
    "geo_location": "POINT(-73.9930576 40.7300458)",
    "phone": "+1-212-477-5566",
    "email": "cozysoupnburger@gmail.com",
    "website": "http://www.cozysoupandburger.com",
    "opening_hours": "Mo-Th 08:00-20:00; Fr-Sa 08:00-22:00; Su 10:00-20:00",
    "inserted_at": "2025-11-28T20:05:07.455126+00:00",
    "updated_at": "2025-11-28T20:05:07.455126+00:00",
    "latitude": 40.7300458,
    "longitude": -73.9930576,
    "url_slug": "cozy-soup-n-burger"
  },
  {
    "uuid": "3756c32e-a67f-44aa-a01d-15a9e31f066a",
    "name": "Tim Ho Wan",
    "address": "85, 4th Avenue, 10003",
    "geo_location": "POINT(-73.9901504 40.7313326)",
    "phone": "+1-212-228-2800",
    "email": "info@timhowanusa.com",
    "website": "https://timhowanusa.com",
    "opening_hours": "Mo-Tu 11:30-20:00; We-Th 11:30-20:30; Fr 11:30-21:00; Sa 11:00-21:00; Su 11:00-20:00",
    "inserted_at": "2025-11-28T20:05:07.455126+00:00",
    "updated_at": "2025-11-28T20:05:07.455126+00:00",
    "latitude": 40.7313326,
    "longitude": -73.9901504,
    "url_slug": "tim-ho-wan"
  },
  {
    "uuid": "4d990a66-82ac-4a01-b1b8-5acf57b28d66",
    "name": "Thai Diner",
    "address": "186, Mott Street, 10012",
    "geo_location": "POINT(-73.9957016 40.7207443)",
    "phone": "+1-646-559-4140",
    "email": "HI@THAIDINER.COM",
    "website": "https://www.thaidiner.com",
    "opening_hours": "Mo-We 08:30-22:30, Th-Fr 08:30-23:30, Sa 10:00-23:30, Su 10:00-22:00",
    "inserted_at": "2025-11-28T20:05:07.455126+00:00",
    "updated_at": "2025-11-28T20:05:07.455126+00:00",
    "latitude": 40.7207443,
    "longitude": -73.9957016,
    "url_slug": "thai-diner"
  },
  {
    "uuid": "cf4574e8-885f-47c2-93c7-6f5ffd013abf",
    "name": "Mamazul Mexican Grill",
    "address": "1155, Broadway, 10001",
    "geo_location": "POINT(-73.9890362 40.7444738)",
    "phone": "+1-212-500-6988",
    "email": "hello@mamazulnyc.com",
    "website": "https://www.mamazulnyc.com/",
    "opening_hours": "Mo-Su 08:00-02:00",
    "inserted_at": "2025-11-28T20:05:07.455126+00:00",
    "updated_at": "2025-11-28T20:05:07.455126+00:00",
    "latitude": 40.7444738,
    "longitude": -73.9890362,
    "url_slug": "mamazul-mexican-grill"
  },
  {
    "uuid": "6a6d4e3a-4b26-4085-bdd7-d75da1e22c9a",
    "name": "Senza Gluten",
    "address": "206, Sullivan Street, New York, NY, 10012",
    "geo_location": "POINT(-74.0003692 40.7290193)",
    "phone": "+1-212-475-7775",
    "email": "info@senzaglutennyc.com",
    "website": "https://senzaglutennyc.com/",
    "opening_hours": "Mo-Sa 12:00-23:00; Su 12:00-22:00",
    "inserted_at": "2025-11-28T20:05:07.455126+00:00",
    "updated_at": "2025-11-28T20:05:07.455126+00:00",
    "latitude": 40.7290193,
    "longitude": -74.0003692,
    "url_slug": "senza-gluten"
  },
  {
    "uuid": "69c7be34-1021-4a5a-b6cf-ec84d31faf89",
    "name": "Red Bamboo",
    "address": "140, West 4th Street, New York, NY, 10012",
    "geo_location": "POINT(-74.0003054 40.7312727)",
    "phone": "+1-212-260-1212",
    "email": "redbamboonyc@gmail.com",
    "website": "https://www.redbamboo-nyc.com",
    "opening_hours": "Mo-Tu 12:00-21:00; We-Su 12:00-22:00",
    "inserted_at": "2025-11-28T20:05:07.455126+00:00",
    "updated_at": "2025-11-28T20:05:07.455126+00:00",
    "latitude": 40.7312727,
    "longitude": -74.0003054,
    "url_slug": "red-bamboo"
  },
  {
    "uuid": "f39ed39d-2bc2-433a-9808-307ef4d32586",
    "name": "Bandito",
    "address": "50, 5th Avenue, 11217",
    "geo_location": "POINT(-73.9770909 40.681618)",
    "phone": "+1-718-230-1703",
    "email": "micah@micahrich.com",
    "website": "https://bandidobk.com",
    "opening_hours": "Mo-Th 11:00-22:00, Fr-Sa 11:00-23:00, Su 11:00-22:00",
    "inserted_at": "2025-11-28T20:05:07.455126+00:00",
    "updated_at": "2025-11-28T20:05:07.455126+00:00",
    "latitude": 40.681618,
    "longitude": -73.9770909,
    "url_slug": "bandito"
  },
  {
    "uuid": "69fe1757-4fcc-4ace-a385-b6072a57a840",
    "name": "Marumi",
    "address": "546, La Guardia Place, 10012",
    "geo_location": "POINT(-73.9983587 40.7289859)",
    "phone": "+1-212-979-7055",
    "email": "nijumarunyc@gmail.com",
    "website": "https://www.marumi.nyc",
    "opening_hours": "Mo-Th 17:00-21:30, Fr-Sa 17:00-22:00, Su 17:00-21:30",
    "inserted_at": "2025-11-28T20:05:07.455126+00:00",
    "updated_at": "2025-11-28T20:05:07.455126+00:00",
    "latitude": 40.7289859,
    "longitude": -73.9983587,
    "url_slug": "marumi"
  },
  {
    "uuid": "da44fc00-24d6-4eac-9f4b-89789cb844ec",
    "name": "Cebu",
    "address": "8801, 3rd Avenue, 11209",
    "geo_location": "POINT(-74.0315305 40.6218894)",
    "phone": "+1-718-492-5095",
    "email": "cebubistro@gmail.com",
    "website": "https://www.cebubrooklyn.com",
    "opening_hours": "Mo-Th 15:00-22:00; Fr 12:00-23:00; Sa 11:00-23:00; Su 11:00-22:00",
    "inserted_at": "2025-11-28T20:05:07.455126+00:00",
    "updated_at": "2025-11-28T20:05:07.455126+00:00",
    "latitude": 40.6218894,
    "longitude": -74.0315305,
    "url_slug": "cebu"
  },
  {
    "uuid": "f08d2b45-c21e-4473-a790-a2d2b879af4c",
    "name": "Puertas",
    "address": "8320, 3rd Avenue, 11209",
    "geo_location": "POINT(-74.0305534 40.6251572)",
    "phone": "+1-347-492-0990",
    "email": "laspuertashg@gmail.com",
    "website": "https://www.puertasrestaurant.com",
    "opening_hours": "Mo-Tu 16:00-21:00; We-Fr 16:00-22:00; Sa 12:00-22:00; Su 12:00-21:00",
    "inserted_at": "2025-11-28T20:05:07.455126+00:00",
    "updated_at": "2025-11-28T20:05:07.455126+00:00",
    "latitude": 40.6251572,
    "longitude": -74.0305534,
    "url_slug": "puertas"
  },
  {
    "uuid": "d74dec68-c9aa-41c9-bad9-3742e9466c33",
    "name": "Meet Wise Meat",
    "address": "242, Brighton Beach Avenue, 11235",
    "geo_location": "POINT(-73.9657069 40.5765441)",
    "phone": "+1-718-292-0000",
    "email": "info@meatwisemeat.com",
    "website": "https://meetwisemeat.com/",
    "opening_hours": "10:00-22:00",
    "inserted_at": "2025-11-28T20:05:07.455126+00:00",
    "updated_at": "2025-11-28T20:05:07.455126+00:00",
    "latitude": 40.5765441,
    "longitude": -73.9657069,
    "url_slug": "meet-wise-meat"
  },
  {
    "uuid": "eb0f8867-6f4f-4630-bd70-efa3cb8946f6",
    "name": "Shoo Shoo Nolita",
    "address": "371, Broome Street, 10013",
    "geo_location": "POINT(-73.9961673 40.7201124)",
    "phone": "+1-646-590-6800",
    "email": "shooshoonolita@gmail.com",
    "website": "https://shooshoonolita.com",
    "opening_hours": "Tu-We 11:30-16:00,17:30-23:00; Th-Sa 11:00-16:00,17:30-24:00; Su 11:00-16:00,17:00-22:00",
    "inserted_at": "2025-11-28T20:05:07.455126+00:00",
    "updated_at": "2025-11-28T20:05:07.455126+00:00",
    "latitude": 40.7201124,
    "longitude": -73.9961673,
    "url_slug": "shoo-shoo-nolita"
  },
  {
    "uuid": "0e26d66f-2e47-4ce5-99bc-451c6db866f9",
    "name": "Laghman Express",
    "address": "6201, 20th Avenue, 11204",
    "geo_location": "POINT(-73.9840284 40.6180844)",
    "phone": "+1-718-232-0525; +1-718-232-1717",
    "email": "laghmanexpress@gmail.com",
    "website": "https://laghmanexpress.com/",
    "opening_hours": "Mo-Th,Sa-Su 11:00-21:00; Fr 11:00-13:00,14:00-21:00",
    "inserted_at": "2025-11-28T20:05:07.455126+00:00",
    "updated_at": "2025-11-28T20:05:07.455126+00:00",
    "latitude": 40.6180844,
    "longitude": -73.9840284,
    "url_slug": "laghman-express"
  },
  {
    "uuid": "adcf0e49-de5c-41b5-88d7-7eafd2882b35",
    "name": "Cena",
    "address": "601, Greenwood Avenue, 11218",
    "geo_location": "POINT(-73.9756623 40.6516328)",
    "phone": "+1-929-337-6666",
    "email": "info@cenabrooklyn.com",
    "website": "https://cenabrooklyn.com",
    "opening_hours": "Mo-Fr 07:00-23:00; Sa-Su 09:00-23:00",
    "inserted_at": "2025-11-28T20:05:07.455126+00:00",
    "updated_at": "2025-11-28T20:05:07.455126+00:00",
    "latitude": 40.6516328,
    "longitude": -73.9756623,
    "url_slug": "cena"
  },
  {
    "uuid": "1e8736fe-744c-4381-b67d-7bebc813167e",
    "name": "Giovanni’s Brooklyn Eats",
    "address": "1666, 8th Avenue, 11215",
    "geo_location": "POINT(-73.9841532 40.6601163)",
    "phone": "+1-917-909-0269",
    "email": "giovannisbrooklyneats@yahoo.com",
    "website": "https://www.giovannisbrooklyneats.com",
    "opening_hours": "Mo-Fr 11:00-22:00; Sa-Su 11:00-15:30,17:00-22:00",
    "inserted_at": "2025-11-28T20:05:07.455126+00:00",
    "updated_at": "2025-11-28T20:05:07.455126+00:00",
    "latitude": 40.6601163,
    "longitude": -73.9841532,
    "url_slug": "giovannis-brooklyn-eats"
  },
  {
    "uuid": "258fd404-18ba-40b8-b393-b74c65aebdc4",
    "name": "Djon Djon",
    "address": "1206, Nostrand Avenue, 11225",
    "geo_location": "POINT(-73.9504885 40.657938)",
    "phone": "+1-718-676-1047",
    "email": "djondjonbk@gmail.com",
    "website": "https://www.djondjonbk.com",
    "opening_hours": "Mo-Th 11:00-23:00, Fr-Sa 11:00-24:00, Su 11:00-23:00",
    "inserted_at": "2025-11-28T20:05:07.455126+00:00",
    "updated_at": "2025-11-28T20:05:07.455126+00:00",
    "latitude": 40.657938,
    "longitude": -73.9504885,
    "url_slug": "djon-djon"
  },
  {
    "uuid": "a26c46df-6d91-4303-b658-1615012c6019",
    "name": "Kulushkät",
    "address": "1137, Washington Avenue, 11225",
    "geo_location": "POINT(-73.9605569 40.6611917)",
    "phone": "+1-347-378-2514",
    "email": "info@kulushkat.com",
    "website": "https://www.kulushkat.com",
    "opening_hours": "Mo-Su 11:00-23:00",
    "inserted_at": "2025-11-28T20:05:07.455126+00:00",
    "updated_at": "2025-11-28T20:05:07.455126+00:00",
    "latitude": 40.6611917,
    "longitude": -73.9605569,
    "url_slug": "kulushkt"
  },
  {
    "uuid": "224fe859-7686-4fa8-a242-40f34bbb2790",
    "name": "Vini e Olii",
    "address": "129, Gates Avenue, 11238",
    "geo_location": "POINT(-73.9629368 40.6849134)",
    "phone": "+1-718-622-9202",
    "email": "vinieolii@gmail.com",
    "website": "https://www.locandany.com",
    "opening_hours": "Mo-Su 17:30-22:00+",
    "inserted_at": "2025-11-28T20:05:07.455126+00:00",
    "updated_at": "2025-11-28T20:05:07.455126+00:00",
    "latitude": 40.6849134,
    "longitude": -73.9629368,
    "url_slug": "vini-e-olii"
  },
  {
    "uuid": "2d2572ca-a2d6-4363-ba97-706ec64fee0f",
    "name": "Cowgirl",
    "address": "519, Hudson Street, 10014",
    "geo_location": "POINT(-74.0064618 40.7338239)",
    "phone": "+1-212-633-1133",
    "email": "info@cowgirlnyc.com",
    "website": "https://cowgirlnyc.com/",
    "opening_hours": "Mo-Th, Su 10:00-23:00; Fr, Sa 10:00-24:00",
    "inserted_at": "2025-11-28T20:05:07.455126+00:00",
    "updated_at": "2025-11-28T20:05:07.455126+00:00",
    "latitude": 40.7338239,
    "longitude": -74.0064618,
    "url_slug": "cowgirl"
  },
  {
    "uuid": "ef43324d-da51-4dec-8881-0d9773d5028e",
    "name": "(aged.)",
    "address": "107-02, 70th Road, 11375",
    "geo_location": "POINT(-73.8456147 40.7207152)",
    "phone": "+1-718-544-2433",
    "email": "info@agednyc.com",
    "website": "https://www.agednyc.com",
    "opening_hours": "Mo-Fr 11:30-22:30; Sa 11:00-22:30; Su 11:00-22:00",
    "inserted_at": "2025-11-28T20:05:07.455126+00:00",
    "updated_at": "2025-11-28T20:05:07.455126+00:00",
    "latitude": 40.7207152,
    "longitude": -73.8456147,
    "url_slug": "aged"
  },
  {
    "uuid": "567152ba-071f-4df5-936a-a73433521cc0",
    "name": "Gertrude's",
    "address": "605, Carlton Avenue, Brooklyn, NY, 11238",
    "geo_location": "POINT(-73.9716118 40.6790513)",
    "phone": "+1-718-269-0043",
    "email": "hello@gertrudes.nyc",
    "website": "https://www.gertrudes.nyc",
    "opening_hours": "Mo,We-Fr 17:00-22:00; Sa-Su 17:00-23:00",
    "inserted_at": "2025-11-28T20:05:07.455126+00:00",
    "updated_at": "2025-11-28T20:05:07.455126+00:00",
    "latitude": 40.6790513,
    "longitude": -73.9716118,
    "url_slug": "gertrudes"
  },
  {
    "uuid": "f08098b5-f127-4347-88de-429035937673",
    "name": "Ortomare Ristorante Pizzeria",
    "address": "994, Columbus Avenue, New York, NY, 10025",
    "geo_location": "POINT(-73.9617243 40.8011509)",
    "phone": "+1-212-665-2970",
    "email": "ortomarenyc@gmail.com",
    "website": "https://ortomare.com/",
    "opening_hours": "Tu-Fr 16:00-22:00; Sa-Su 15:00-22:00",
    "inserted_at": "2025-11-28T20:05:07.455126+00:00",
    "updated_at": "2025-11-28T20:05:07.455126+00:00",
    "latitude": 40.8011509,
    "longitude": -73.9617243,
    "url_slug": "ortomare-ristorante-pizzeria"
  },
  {
    "uuid": "6e0788ce-4a0b-4694-a79a-bf96446e9b83",
    "name": "Miss Mamie's Spoonbread Too",
    "address": "366, West 110th Street, New York, NY, 10025",
    "geo_location": "POINT(-73.9609048 40.8014541)",
    "phone": "+1-212-865-0700",
    "email": "darden343@aol.com",
    "website": "https://spoonbreadinc.com/",
    "opening_hours": "Mo-Th 12:00-22:00; Fr-Sa 12:00-23:00; Su 11:00-21:30",
    "inserted_at": "2025-11-28T20:05:07.455126+00:00",
    "updated_at": "2025-11-28T20:05:07.455126+00:00",
    "latitude": 40.8014541,
    "longitude": -73.9609048,
    "url_slug": "miss-mamies-spoonbread-too"
  },
  {
    "uuid": "1d040bed-09cf-4df3-ad3e-9e441b75ed00",
    "name": "Han Dynasty",
    "address": "215, West 85th Street, New York, NY, 10024",
    "geo_location": "POINT(-73.9764459 40.7875393)",
    "phone": "+1-212-858-9060",
    "email": "uws@handynasty.net",
    "website": "https://www.handynasty.net/location/han-dynasty-upper-west-side/",
    "opening_hours": "Mo-Tu 11:00-22:00; We-Su 11:00-01:00",
    "inserted_at": "2025-11-28T20:05:07.455126+00:00",
    "updated_at": "2025-11-28T20:05:07.455126+00:00",
    "latitude": 40.7875393,
    "longitude": -73.9764459,
    "url_slug": "han-dynasty"
  },
  {
    "uuid": "c55e8ade-a93f-4e73-998b-cbf63a3aadaf",
    "name": "Miriam",
    "address": "300, Amsterdam Avenue, New York, NY, 10023",
    "geo_location": "POINT(-73.980766 40.7801424)",
    "phone": "+1-646-590-2659",
    "email": "HBMUWS@gmail.com",
    "website": "https://uws.miriamrestaurant.com",
    "opening_hours": "Mo-Fr 10:00-22:00; Sa-Su 09:00-22:00",
    "inserted_at": "2025-11-28T20:05:07.455126+00:00",
    "updated_at": "2025-11-28T20:05:07.455126+00:00",
    "latitude": 40.7801424,
    "longitude": -73.980766,
    "url_slug": "miriam"
  },
  {
    "uuid": "2b89983d-18d6-4b2d-aab3-2637296a0bee",
    "name": "Eléa",
    "address": "217, West 85th Street, New York, NY, 10024",
    "geo_location": "POINT(-73.9766092 40.7875985)",
    "phone": "+1-212-369-9800",
    "email": "info@eleanyc.com",
    "website": "https://eleanyc.com/",
    "opening_hours": "Mo-We 16:30-22:00; Th, Fr 16:30-23:00; Sa 11:30-23:00; Su 11:30-22:00",
    "inserted_at": "2025-11-28T20:05:07.455126+00:00",
    "updated_at": "2025-11-28T20:05:07.455126+00:00",
    "latitude": 40.7875985,
    "longitude": -73.9766092,
    "url_slug": "ela"
  },
  {
    "uuid": "db35d763-b004-424e-99d0-3b129f02f24f",
    "name": "Motorino",
    "address": "349, East 12th Street, New York, NY, 10003",
    "geo_location": "POINT(-73.9839142 40.7302858)",
    "phone": "+1-212-777-2644",
    "email": "info@motorinopizza.com",
    "website": "https://www.motorinony.com/location/east-village/",
    "opening_hours": "Mo-Th 16:00-22:30, Fr-Su 12:00-22:30",
    "inserted_at": "2025-11-28T20:05:07.455126+00:00",
    "updated_at": "2025-11-28T20:05:07.455126+00:00",
    "latitude": 40.7302858,
    "longitude": -73.9839142,
    "url_slug": "motorino"
  },
  {
    "uuid": "2a3118d6-e6b2-4202-a5a8-65f1aaa04ad3",
    "name": "King David's",
    "address": "317, Towne Drive, Fayetteville, NY, 13066",
    "geo_location": "POINT(-76.0199663 43.0330091)",
    "phone": "+1-315-637-0485",
    "email": "info@kingdavids.com",
    "website": "https://kingdavids.com/",
    "opening_hours": "Mo-Th 11:00-21:00; Fr-Sa 11:00-22:00; Su 12:00-19:00",
    "inserted_at": "2025-11-28T20:05:07.455126+00:00",
    "updated_at": "2025-11-28T20:05:07.455126+00:00",
    "latitude": 43.0330091,
    "longitude": -76.0199663,
    "url_slug": "king-davids"
  },
  {
    "uuid": "8f637edf-6938-4cc3-8894-897075fd81c7",
    "name": "Ciao!",
    "address": "2, Hickory Hollow Lane, Ithaca, NY, 14850",
    "geo_location": "POINT(-76.4890655 42.4877279)",
    "phone": "+1-607-257-2233",
    "email": "info@ciaoithaca.com",
    "website": "https://ciaoithaca.com/",
    "opening_hours": "16:00-21:00",
    "inserted_at": "2025-11-28T20:05:07.455126+00:00",
    "updated_at": "2025-11-28T20:05:07.455126+00:00",
    "latitude": 42.4877279,
    "longitude": -76.4890655,
    "url_slug": "ciao"
  },
  {
    "uuid": "dfd0ed8a-21a6-4346-968f-1bb91a1bcd95",
    "name": "Mexico Authentico",
    "address": "396, 6th Avenue, Brooklyn, 11215",
    "geo_location": "POINT(-73.9829869 40.6693981)",
    "phone": "+1-718-369-0849",
    "email": "info@mexicoautenticonyc.com",
    "website": "https://mexicoautenticonyc.com",
    "opening_hours": "Mo-Th 15:00-22:30; Fr 13:00-23:00; Sa 11:00-23:00; Su 11:00-22:00",
    "inserted_at": "2025-11-28T20:05:07.455126+00:00",
    "updated_at": "2025-11-28T20:05:07.455126+00:00",
    "latitude": 40.6693981,
    "longitude": -73.9829869,
    "url_slug": "mexico-authentico"
  },
  {
    "uuid": "e229d96b-4ebf-491c-a4cd-f7a35a1a7f88",
    "name": "Manhattan Indian Flavor",
    "address": "311, 2nd Avenue, 10003",
    "geo_location": "POINT(-73.9832212 40.7350273)",
    "phone": "+1-917-472-7593",
    "email": "eben@eyebytes.com",
    "website": "https://manhattanindianflavor.com",
    "opening_hours": "Tu-Th 11:00-15:00,16:30-22:00; Fr-Sa 11:00-15:00,16:30-22:30; Su 11:00-15:00,16:30-22:00",
    "inserted_at": "2025-11-28T20:05:07.455126+00:00",
    "updated_at": "2025-11-28T20:05:07.455126+00:00",
    "latitude": 40.7350273,
    "longitude": -73.9832212,
    "url_slug": "manhattan-indian-flavor"
  },
  {
    "uuid": "da972970-f342-4af7-81dc-fddbf6b50291",
    "name": "Song’ E Napule",
    "address": "146, West Houston Street, New York, NY",
    "geo_location": "POINT(-74.001839 40.7281274)",
    "phone": "+1-212-533-1242",
    "email": "store@songenapule.us",
    "website": "https://songenapule.us/",
    "opening_hours": "12:00-23:00",
    "inserted_at": "2025-11-28T20:05:07.455126+00:00",
    "updated_at": "2025-11-28T20:05:07.455126+00:00",
    "latitude": 40.7281274,
    "longitude": -74.001839,
    "url_slug": "song-e-napule"
  },
  {
    "uuid": "8f680bec-9e28-4a54-8627-516463eefb1c",
    "name": "BCD Tofu House",
    "address": "5, West 32nd Street, 10001",
    "geo_location": "POINT(-73.9860606 40.7475091)",
    "phone": "+1-212-967-1900",
    "email": "info@bcdtofu.com",
    "website": "https://www.bcdtofuhouse.com",
    "opening_hours": "Su-Th 10:30-01:00; Fr-Sa 10:30-05:00",
    "inserted_at": "2025-11-28T20:05:07.455126+00:00",
    "updated_at": "2025-11-28T20:05:07.455126+00:00",
    "latitude": 40.7475091,
    "longitude": -73.9860606,
    "url_slug": "bcd-tofu-house"
  },
  {
    "uuid": "2effff17-596f-4026-b7a6-fd87d48c4996",
    "name": "Churrascaria Plataforma",
    "address": "316, West 49th Street, 10019",
    "geo_location": "POINT(-73.987651 40.7620192)",
    "phone": "+1-212-245-0505",
    "email": "info@plataformaonline.com",
    "website": "https://plataformaonline.com",
    "opening_hours": "Mo-We 13:00-21:00; Th, Fr 13:00-22:00; Sa 12:00-23:00; Su 12:00-21:00",
    "inserted_at": "2025-11-28T20:05:07.455126+00:00",
    "updated_at": "2025-11-28T20:05:07.455126+00:00",
    "latitude": 40.7620192,
    "longitude": -73.987651,
    "url_slug": "churrascaria-plataforma"
  },
  {
    "uuid": "826aa746-4df1-4aa0-b1a8-705db02828d6",
    "name": "Harry Cipriani",
    "address": "781, 5th Avenue, 10022",
    "geo_location": "POINT(-73.972705 40.7643866)",
    "phone": "+1-212-753-5566",
    "email": "events@cipriani.com",
    "website": "https://www.cipriani.com/",
    "opening_hours": "Mo-Su 19:00-24:00",
    "inserted_at": "2025-11-28T20:05:07.455126+00:00",
    "updated_at": "2025-11-28T20:05:07.455126+00:00",
    "latitude": 40.7643866,
    "longitude": -73.972705,
    "url_slug": "harry-cipriani"
  },
  {
    "uuid": "db09a90c-7338-447e-b335-5113a5c0a04e",
    "name": "Mad Dog & Beans Mexican Cantina",
    "address": "5, East 38th Street, New York, NY, 10016",
    "geo_location": "POINT(-73.9819745 40.7507533)",
    "phone": "+1-646-998-5722",
    "email": "info@mdb38.com",
    "website": "https://www.maddogandbeans.com",
    "opening_hours": "Su-Th 12:00-22:00; We 12:00-23:00; Th-Sa 12:00-24:00",
    "inserted_at": "2025-11-28T20:05:07.455126+00:00",
    "updated_at": "2025-11-28T20:05:07.455126+00:00",
    "latitude": 40.7507533,
    "longitude": -73.9819745,
    "url_slug": "mad-dog-beans-mexican-cantina"
  },
  {
    "uuid": "69f3b6c8-c09c-4e49-8c1c-74d96c4d66f8",
    "name": "Yezo Isankaya",
    "address": "301, East 49th Street, 10022",
    "geo_location": "POINT(-73.968608 40.7542073)",
    "phone": "+1-646-398-8656",
    "email": "yezoisankaya@gmail.com",
    "website": "https://www.yezonyc.com/",
    "opening_hours": "Mo-Th 12:00-15:00,17:00-22:00; Fr 12:00-15:00,17:00-22:30; Sa 12:00-22:30; Su 12:00-22:00",
    "inserted_at": "2025-11-28T20:05:07.455126+00:00",
    "updated_at": "2025-11-28T20:05:07.455126+00:00",
    "latitude": 40.7542073,
    "longitude": -73.968608,
    "url_slug": "yezo-isankaya"
  },
  {
    "uuid": "4e8564ff-4e83-4521-aeac-8c93b68f76ad",
    "name": "Tensai Udon House",
    "address": "222, East 51st Street, New York, NY, 10022",
    "geo_location": "POINT(-73.9693724 40.7559526)",
    "phone": "+1-212-466-6591",
    "email": "tensai.nyc@gmail.com",
    "website": "https://www.tensainyc.com/",
    "opening_hours": "11:00-15:30,17:00-21:30",
    "inserted_at": "2025-11-28T20:05:07.455126+00:00",
    "updated_at": "2025-11-28T20:05:07.455126+00:00",
    "latitude": 40.7559526,
    "longitude": -73.9693724,
    "url_slug": "tensai-udon-house"
  },
  {
    "uuid": "d724e8f8-a0d6-4770-b2ba-528f86090929",
    "name": "Yakiniku TORAJI",
    "address": "217, East 43rd Street, 10017",
    "geo_location": "POINT(-73.9727833 40.7510434)",
    "phone": "+1-929-417-2629",
    "email": "info@torajiny.com",
    "website": "https://torajiny.com/",
    "opening_hours": "Mo-Fr 11:30-14:30,17:00-24:00; Sa-Su 11:30-14:30,16:00-24:00",
    "inserted_at": "2025-11-28T20:05:07.455126+00:00",
    "updated_at": "2025-11-28T20:05:07.455126+00:00",
    "latitude": 40.7510434,
    "longitude": -73.9727833,
    "url_slug": "yakiniku-toraji"
  },
  {
    "uuid": "be8a6f62-b553-40c5-9e74-b73791385685",
    "name": "La Masseria",
    "address": "235, West 48th Street, 10036",
    "geo_location": "POINT(-73.986314 40.7608991)",
    "phone": "+1-212-582-2111",
    "email": "info@lamasserianyc.com",
    "website": "https://lamasserianyc.com/",
    "opening_hours": "Mo 12:00-15:00, 16:30-23:00; Tu-Sa 12:00-15:00, 16:30-24:00; Su 12:00-22:30",
    "inserted_at": "2025-11-28T20:05:07.455126+00:00",
    "updated_at": "2025-11-28T20:05:07.455126+00:00",
    "latitude": 40.7608991,
    "longitude": -73.986314,
    "url_slug": "la-masseria"
  },
  {
    "uuid": "18f5f81e-2c08-4465-b434-1eb6452c4dad",
    "name": "Raku Soho",
    "address": "48, MacDougal Street, New York, NY, 10012",
    "geo_location": "POINT(-74.0025925 40.7273101)",
    "phone": "+1-212-228-1324",
    "email": "soho@rakunyc.com",
    "website": "https://rakunyc.com/",
    "opening_hours": "Su-Th 24:00-22:00; Fr,Sa 24:00-23:00",
    "inserted_at": "2025-11-28T20:05:07.455126+00:00",
    "updated_at": "2025-11-28T20:05:07.455126+00:00",
    "latitude": 40.7273101,
    "longitude": -74.0025925,
    "url_slug": "raku-soho"
  },
  {
    "uuid": "cd4c6eb3-c56a-4e53-8cd2-74c607fad79c",
    "name": "LENOXTHAI",
    "address": "1219, 1st Avenue, 10065",
    "geo_location": "POINT(-73.9590987 40.7638606)",
    "phone": "+1-212-466-6189",
    "email": "info@lenoxthai.com",
    "website": "https://www.lenoxthai.com",
    "opening_hours": "Mo-Su 11:30-15:00, 16:00-21:15",
    "inserted_at": "2025-11-28T20:05:07.455126+00:00",
    "updated_at": "2025-11-28T20:05:07.455126+00:00",
    "latitude": 40.7638606,
    "longitude": -73.9590987,
    "url_slug": "lenoxthai"
  },
  {
    "uuid": "b8d29e61-2c91-4503-a9c5-78b21aca94d6",
    "name": "Spice",
    "address": "1479, 1st Avenue, New York, NY, 10075",
    "geo_location": "POINT(-73.9537403 40.7711933)",
    "phone": "+1-212-744-6374",
    "email": "info@spicethaiusa.com",
    "website": "https://www.spicethaiusa.com/",
    "opening_hours": "Su-Th 11:30-15:30, 17:00-22:15; Fr-Sa 11:30-15:30, 17:00-23:00",
    "inserted_at": "2025-11-28T20:05:07.455126+00:00",
    "updated_at": "2025-11-28T20:05:07.455126+00:00",
    "latitude": 40.7711933,
    "longitude": -73.9537403,
    "url_slug": "spice"
  },
  {
    "uuid": "acaf8fc3-a1f7-4e67-896f-27abd4ccf115",
    "name": "Catch n' Chop",
    "address": "1600, 3rd Avenue, 10028",
    "geo_location": "POINT(-73.9523876 40.7813175)",
    "phone": "+1-646-707-0103",
    "email": "info@catchnchop.com",
    "website": "https://catchnchop.com/",
    "opening_hours": "Tu-Th 16:00-24:00; Fr, Sa 11:00-01:00; Su 11:00-24:00",
    "inserted_at": "2025-11-28T20:05:07.455126+00:00",
    "updated_at": "2025-11-28T20:05:07.455126+00:00",
    "latitude": 40.7813175,
    "longitude": -73.9523876,
    "url_slug": "catch-n-chop"
  },
  {
    "uuid": "3447ce8c-eeba-49e9-a5e2-64c84dd632ba",
    "name": "Salumeria Rosi",
    "address": "283, Amsterdam Avenue, New York, NY, 10023",
    "geo_location": "POINT(-73.9808591 40.7793592)",
    "phone": "+1-212-877-4800",
    "email": "info@salumeriarosinyc.com",
    "website": "https://www.salumeriarosinyc.com",
    "opening_hours": "Mo-Fr 12:00-22:00; Sa, Su 11:00-23:00",
    "inserted_at": "2025-11-28T20:05:07.455126+00:00",
    "updated_at": "2025-11-28T20:05:07.455126+00:00",
    "latitude": 40.7793592,
    "longitude": -73.9808591,
    "url_slug": "salumeria-rosi"
  },
  {
    "uuid": "201dbbe5-4d81-425d-be76-2cf9f891d0ff",
    "name": "Café du Soleil",
    "address": "2723, Broadway, 10025",
    "geo_location": "POINT(-73.9683967 40.8000965)",
    "phone": "+1-212-316-5000",
    "email": "info@CafeduSoleilNY.com",
    "website": "https://www.cafedusoleilny.com",
    "opening_hours": "Mo-We 16:00-22:00; Th-Fr 11:00-23:00; Sa 09:00-23:00; Su 09:00-22:00",
    "inserted_at": "2025-11-28T20:05:07.455126+00:00",
    "updated_at": "2025-11-28T20:05:07.455126+00:00",
    "latitude": 40.8000965,
    "longitude": -73.9683967,
    "url_slug": "caf-du-soleil"
  },
  {
    "uuid": "e8badc7b-b3be-40c5-8108-4400789e1989",
    "name": "Amity Hall Uptown",
    "address": "982, Amsterdam Avenue, 10025",
    "geo_location": "POINT(-73.9646355 40.802258)",
    "phone": "+1-646-930-2501",
    "email": "info@amityhalluptown.com",
    "website": "https://amityhalluptown.com/",
    "opening_hours": "Mo 12:00-23:30; Tu-Fr 12:00-24:00; Sa 10:00-24:00; Su 10:00-23:30",
    "inserted_at": "2025-11-28T20:05:07.455126+00:00",
    "updated_at": "2025-11-28T20:05:07.455126+00:00",
    "latitude": 40.802258,
    "longitude": -73.9646355,
    "url_slug": "amity-hall-uptown"
  },
  {
    "uuid": "b186ed35-1cc5-48ed-8d40-70b446921bf4",
    "name": "La Isla Restaurant",
    "address": "1883, 3rd Avenue, 10029",
    "geo_location": "POINT(-73.9453843 40.7902892)",
    "phone": "+1-212-534-0002",
    "email": "team@latofonts.com",
    "website": "https://laislarestaurant104.com",
    "opening_hours": "Mo-Th 10:00-01:00; Fr, Sa 10:00-03:00; Su 10:00-01:00",
    "inserted_at": "2025-11-28T20:05:07.455126+00:00",
    "updated_at": "2025-11-28T20:05:07.455126+00:00",
    "latitude": 40.7902892,
    "longitude": -73.9453843,
    "url_slug": "la-isla-restaurant"
  },
  {
    "uuid": "c25307e4-2feb-445e-90d4-f3f8d043d5e0",
    "name": "Safari",
    "address": "55, Saint Nicholas Avenue, New York, NY, 10026",
    "geo_location": "POINT(-73.9527099 40.8005894)",
    "phone": "+1-646-964-4252",
    "email": "safarinewyork2015@gmail.com",
    "website": "https://safariharlem.com",
    "opening_hours": "Tu-Su 10:00-22:00",
    "inserted_at": "2025-11-28T20:05:07.455126+00:00",
    "updated_at": "2025-11-28T20:05:07.455126+00:00",
    "latitude": 40.8005894,
    "longitude": -73.9527099,
    "url_slug": "safari"
  },
  {
    "uuid": "d898f55b-aebc-4eee-a8ea-940e4a524ccc",
    "name": "Sapps",
    "address": "2888, Broadway, New York, NY, 10025",
    "geo_location": "POINT(-73.9653069 40.8055983)",
    "phone": "+1-646-454-9092",
    "email": "Info@sappsuws.com",
    "website": "https://www.sappsuws.com",
    "opening_hours": "Mo-Th 11:30-20:00; Fr 11:30-23:00; Sa 12:30-23:00; Su 16:30-20:00",
    "inserted_at": "2025-11-28T20:05:07.455126+00:00",
    "updated_at": "2025-11-28T20:05:07.455126+00:00",
    "latitude": 40.8055983,
    "longitude": -73.9653069,
    "url_slug": "sapps"
  },
  {
    "uuid": "7d802596-6019-44a6-ad31-4f012c8b272a",
    "name": "Tampopo Ramen",
    "address": "1, Bennett Avenue, New York, NY, 10033",
    "geo_location": "POINT(-73.9364784 40.8505834)",
    "phone": "+1-212-923-0575",
    "email": "info.tampoporamen@gmail.com",
    "website": "https://tampoporamennyc.com/",
    "opening_hours": "Su-Th 12:00-22:00; Sa 12:00-23:00",
    "inserted_at": "2025-11-28T20:05:07.455126+00:00",
    "updated_at": "2025-11-28T20:05:07.455126+00:00",
    "latitude": 40.8505834,
    "longitude": -73.9364784,
    "url_slug": "tampopo-ramen"
  },
  {
    "uuid": "0e7b3e27-d2d4-4716-82fc-dca7b8d53393",
    "name": "Fresco's Pizzeria",
    "address": "804, West 187th Street, New York, NY, 10033",
    "geo_location": "POINT(-73.9373517 40.8551515)",
    "phone": "+1-212-740-2737",
    "email": "info@frescospizzeria.com",
    "website": "https://www.frescospizzeria.com",
    "opening_hours": "Mo-Su 10:00-23:00",
    "inserted_at": "2025-11-28T20:05:07.455126+00:00",
    "updated_at": "2025-11-28T20:05:07.455126+00:00",
    "latitude": 40.8551515,
    "longitude": -73.9373517,
    "url_slug": "frescos-pizzeria"
  },
  {
    "uuid": "d8d150b4-1026-4a88-a94f-05d27a010a71",
    "name": "Seis Vecinos",
    "address": "640, Prospect Avenue, Bronx, NY, 10455",
    "geo_location": "POINT(-73.9031697 40.8153204)",
    "phone": "+1-718-684-8604",
    "email": "info@seisvecinos.com",
    "website": "https://www.seisvecinos.com/",
    "opening_hours": "Mo-Su 09:00-24:00",
    "inserted_at": "2025-11-28T20:05:07.455126+00:00",
    "updated_at": "2025-11-28T20:05:07.455126+00:00",
    "latitude": 40.8153204,
    "longitude": -73.9031697,
    "url_slug": "seis-vecinos"
  },
  {
    "uuid": "3d081d1f-425c-4cc9-8151-ce4b9e27e98f",
    "name": "Buddha Bodai",
    "address": "5, Mott Street, 10013",
    "geo_location": "POINT(-73.9987984 40.713865)",
    "phone": "+1-212-566-8388",
    "email": "info@chinatownvegetarian.com",
    "website": "https://www.buddha-bodai.com",
    "opening_hours": "Mo-Fr 11:00-21:30; Sa-Su 10:00-21:30",
    "inserted_at": "2025-11-28T20:05:07.455126+00:00",
    "updated_at": "2025-11-28T20:05:07.455126+00:00",
    "latitude": 40.713865,
    "longitude": -73.9987984,
    "url_slug": "buddha-bodai"
  },
  {
    "uuid": "752f3b5c-9586-47ac-87f9-a2ba8017c19c",
    "name": "Forever Thai",
    "address": "1031, Flushing Avenue, 11237",
    "geo_location": "POINT(-73.931087 40.7039175)",
    "phone": "+1-347-599-0277",
    "email": "foreverthaibushwick@gmail.com",
    "website": "https://www.foreverthaibushwick.com/",
    "opening_hours": "Mo-Su 11:00-22:00",
    "inserted_at": "2025-11-28T20:05:07.455126+00:00",
    "updated_at": "2025-11-28T20:05:07.455126+00:00",
    "latitude": 40.7039175,
    "longitude": -73.931087,
    "url_slug": "forever-thai"
  },
  {
    "uuid": "c09c0414-0093-42fe-9213-a8d22e5683f7",
    "name": "Birds of a Feather",
    "address": "191, Grand Street, Brooklyn, NY, 11211",
    "geo_location": "POINT(-73.9605332 40.7143133)",
    "phone": "+1-718-969-6800",
    "email": "birdsofafeather.nyc@gmail.com",
    "website": "https://birdsofafeatherny.com",
    "opening_hours": "Mo-Th 12:00-15:00,17:00-22:00; Fr 12:00-15:00,17:00-22:30; Sa 12:00-22:30; Su 12:00-22:00",
    "inserted_at": "2025-11-28T20:05:07.455126+00:00",
    "updated_at": "2025-11-28T20:05:07.455126+00:00",
    "latitude": 40.7143133,
    "longitude": -73.9605332,
    "url_slug": "birds-of-a-feather"
  },
  {
    "uuid": "ea98c581-a0e0-4b0e-bdfb-d355229c013e",
    "name": "Café Colette",
    "address": "79, Berry Street, Brooklyn, NY, 11249",
    "geo_location": "POINT(-73.9576296 40.71977)",
    "phone": "+1-347-599-1381",
    "email": "hello@cafe-colette.com",
    "website": "https://www.cafe-colette.com",
    "opening_hours": "Mo-Th 09:00-22:00; Fr 09:00-23:00; Sa 10:00-23:00; Su 10:00-22:00",
    "inserted_at": "2025-11-28T20:05:07.455126+00:00",
    "updated_at": "2025-11-28T20:05:07.455126+00:00",
    "latitude": 40.71977,
    "longitude": -73.9576296,
    "url_slug": "caf-colette"
  },
  {
    "uuid": "93a24ac3-7806-4d59-9eb4-bfe90f638d2e",
    "name": "Bonnie's",
    "address": "398, Manhattan Avenue, Brooklyn, NY, 11211",
    "geo_location": "POINT(-73.9465104 40.7178242)",
    "phone": "+1-914-875-3709",
    "email": "hello@bonniesbrooklyn.com",
    "website": "https://www.bonniesbrooklyn.com/",
    "opening_hours": "Mo off; Tu-Fr 17:00-22:00; Sa,Su 11:00-14:30,17:00-22:00",
    "inserted_at": "2025-11-28T20:05:07.455126+00:00",
    "updated_at": "2025-11-28T20:05:07.455126+00:00",
    "latitude": 40.7178242,
    "longitude": -73.9465104,
    "url_slug": "bonnies"
  },
  {
    "uuid": "1296dbab-c6f2-4c6f-9b4c-f49fe01b6eea",
    "name": "Lilia",
    "address": "567, Union Avenue, Brooklyn, 11211",
    "geo_location": "POINT(-73.9524013 40.7176165)",
    "phone": "+1-718-576-3095",
    "email": "reservations@lilianewyork.com",
    "website": "https://www.lilianewyork.com/",
    "opening_hours": "Mo-Fr 17:30-23:00; Sa-Su 17:00-23:00 \"restaurant\"||Mo-Su 07:00-16:00 \"cafe\"",
    "inserted_at": "2025-11-28T20:05:07.455126+00:00",
    "updated_at": "2025-11-28T20:05:07.455126+00:00",
    "latitude": 40.7176165,
    "longitude": -73.9524013,
    "url_slug": "lilia"
  },
  {
    "uuid": "0ca8054c-8303-4458-bdcf-dc5a4960f394",
    "name": "Gator",
    "address": "105, Norman Avenue, 11222",
    "geo_location": "POINT(-73.951074 40.7257771)",
    "phone": "+1-718-500-4868",
    "email": "hello@gatorbk.com",
    "website": "https://www.gatorbk.com/",
    "opening_hours": "Mo,We-Fr 17:30-22:00; Tu off; Sa 11:00-16:00, 17:30-22:00; Su 11:00-16:00, 17:30-21:00",
    "inserted_at": "2025-11-28T20:05:07.455126+00:00",
    "updated_at": "2025-11-28T20:05:07.455126+00:00",
    "latitude": 40.7257771,
    "longitude": -73.951074,
    "url_slug": "gator"
  },
  {
    "uuid": "9588077f-714e-4a8e-aa5d-874947ae4122",
    "name": "O Neil's",
    "address": "64-21, 53rd Drive, Maspeth, NY, 11378",
    "geo_location": "POINT(-73.9005494 40.7289179)",
    "phone": "+1-718-672-9696",
    "email": "oneills.restaurant@yahoo.com",
    "website": "https://oneillsmaspethny.com/",
    "opening_hours": "Mo-Th 11:00-01:00; Fr-Sa 11:00-03:00; Su 11:00-01:00",
    "inserted_at": "2025-11-28T20:05:07.455126+00:00",
    "updated_at": "2025-11-28T20:05:07.455126+00:00",
    "latitude": 40.7289179,
    "longitude": -73.9005494,
    "url_slug": "o-neils"
  },
  {
    "uuid": "f80a1a1c-effe-4c2f-97ee-bc71816237ee",
    "name": "Wonder Pig K-BBQ",
    "address": "37-08, Queens Boulevard, Long Island City, NY, 11101",
    "geo_location": "POINT(-73.9276511 40.7439147)",
    "phone": "+1-845-592-5554",
    "email": "allyoucaneat@wonderpigkbbq.com",
    "website": "https://www.wonderpigkbbq.com/",
    "opening_hours": "Mo-Th 12:00-22:00; Fr, Sa 12:00-24:00; Su 12:00-23:00",
    "inserted_at": "2025-11-28T20:05:07.455126+00:00",
    "updated_at": "2025-11-28T20:05:07.455126+00:00",
    "latitude": 40.7439147,
    "longitude": -73.9276511,
    "url_slug": "wonder-pig-k-bbq"
  },
  {
    "uuid": "45841936-89fb-4930-b500-63be42126f9d",
    "name": "Cardamom",
    "address": "43-45, 43rd Street, 11104",
    "geo_location": "POINT(-73.9212315 40.7438925)",
    "phone": "+1-718-706-9718",
    "email": "anilny7@gmail.com",
    "website": "https://cardamomny.com",
    "opening_hours": "Mo, We-Fr 16:00-22:00; Sa-Su 16:00-22:00",
    "inserted_at": "2025-11-28T20:05:07.455126+00:00",
    "updated_at": "2025-11-28T20:05:07.455126+00:00",
    "latitude": 40.7438925,
    "longitude": -73.9212315,
    "url_slug": "cardamom"
  },
  {
    "uuid": "57697038-276b-4469-b713-adc3422eec4d",
    "name": "Momo Crave",
    "address": "38-07, 69th Street, Woodside, NY, 11377",
    "geo_location": "POINT(-73.896248 40.7468659)",
    "phone": "+1-718-255-1714",
    "email": "momocrave@gmail.com",
    "website": "https://momocrave.com/",
    "opening_hours": "Mo-Su 12:00-22:00; Tu off",
    "inserted_at": "2025-11-28T20:05:07.455126+00:00",
    "updated_at": "2025-11-28T20:05:07.455126+00:00",
    "latitude": 40.7468659,
    "longitude": -73.896248,
    "url_slug": "momo-crave"
  },
  {
    "uuid": "501834cf-3c58-42c5-989c-8c111e7adff0",
    "name": "Círculo Español",
    "address": "41-01, 41st, 11103",
    "geo_location": "POINT(-73.9179393 40.7586167)",
    "phone": "+1-718-626-0872",
    "email": "info@centroespanoldequeens.org",
    "website": "https://centroespanoldequeens.org/en/circulo-espanol",
    "opening_hours": "Th 17:00-21:00; Fr-Sa 13:00-22:00; Su 13:00-19:00",
    "inserted_at": "2025-11-28T20:05:07.455126+00:00",
    "updated_at": "2025-11-28T20:05:07.455126+00:00",
    "latitude": 40.7586167,
    "longitude": -73.9179393,
    "url_slug": "crculo-espaol"
  },
  {
    "uuid": "9fe7d448-850c-415e-8c67-6a9d722f9a93",
    "name": "Mominette",
    "address": "221, Knickerbocker Avenue, Brooklyn, 11237",
    "geo_location": "POINT(-73.9258662 40.7032124)",
    "phone": "+1-929-234-2941",
    "email": "mominettereservations@gmail.com",
    "website": "https://mominette.com/",
    "opening_hours": "Mo-Th 11:00-23:00; Fr 11:00-24:00; Sa 10:30-24:00; Su 10:30-22:30",
    "inserted_at": "2025-11-28T20:05:07.455126+00:00",
    "updated_at": "2025-11-28T20:05:07.455126+00:00",
    "latitude": 40.7032124,
    "longitude": -73.9258662,
    "url_slug": "mominette"
  },
  {
    "uuid": "5389500c-34ee-4768-969c-386fb8c27e95",
    "name": "Polish Villa",
    "address": "14227",
    "geo_location": "POINT(-78.7548032 42.8925169)",
    "phone": "+1-716-683-9460",
    "email": "alisondepaolo@yahoo.com",
    "website": "https://www.polishvillaunion.com/",
    "opening_hours": "Tu-Su 08:00-20:00; Mo 10:00-20:00",
    "inserted_at": "2025-11-28T20:05:07.455126+00:00",
    "updated_at": "2025-11-28T20:05:07.455126+00:00",
    "latitude": 42.8925169,
    "longitude": -78.7548032,
    "url_slug": "polish-villa"
  },
  {
    "uuid": "2ed39af3-1ce4-4640-a2f4-386171156d36",
    "name": "Donburiya",
    "address": "253, West 55th Street, New York, 10019",
    "geo_location": "POINT(-73.9832463 40.7653013)",
    "phone": "+1-212-980-7909",
    "email": "japas47@gmail.com",
    "website": "https://www.donburiyany.com/",
    "opening_hours": "Mo 11:45-14:30,17:30-22:30, Tu-Fr 11:45-14:30,17:30-02:30, Sa 11:45-02:30, Su 11:45-21:00",
    "inserted_at": "2025-11-28T20:05:07.455126+00:00",
    "updated_at": "2025-11-28T20:05:07.455126+00:00",
    "latitude": 40.7653013,
    "longitude": -73.9832463,
    "url_slug": "donburiya"
  },
  {
    "uuid": "e80878c6-910a-4ee1-9512-64a93f63ac7a",
    "name": "Izakaya NoMad",
    "address": "13, West 26th Street, New York, NY, 10010",
    "geo_location": "POINT(-73.9894469 40.7440806)",
    "phone": "+1-212-213-6258",
    "email": "info@izakayaNoMad.com",
    "website": "https://www.izakayanomad.com/",
    "opening_hours": "Mo-We 12:00-14:30, 17:30-24:00; Th-Fr 12:00-14:30, 17:30-01:00; Sa 17:30-01:00",
    "inserted_at": "2025-11-28T20:05:07.455126+00:00",
    "updated_at": "2025-11-28T20:05:07.455126+00:00",
    "latitude": 40.7440806,
    "longitude": -73.9894469,
    "url_slug": "izakaya-nomad"
  },
  {
    "uuid": "4989a2e7-2458-410d-a9df-fbf62301ac64",
    "name": "Barrio Chino",
    "address": "253, Broome Street, New York, NY, 10002",
    "geo_location": "POINT(-73.9900488 40.7179789)",
    "phone": "+1-212-228-6710",
    "email": "info@barriochinony.com",
    "website": "https://www.barriochinony.com",
    "opening_hours": "Mo-Th 16:00-22:00, Fr-Sa 17:00-23:00, Su 17:00-22:00",
    "inserted_at": "2025-11-28T20:05:07.455126+00:00",
    "updated_at": "2025-11-28T20:05:07.455126+00:00",
    "latitude": 40.7179789,
    "longitude": -73.9900488,
    "url_slug": "barrio-chino"
  },
  {
    "uuid": "ee33b58f-6bc6-4773-a157-c609b3d32b94",
    "name": "Bar Belly",
    "address": "14B, Orchard Street, New York, NY, 10002",
    "geo_location": "POINT(-73.9916523 40.7151349)",
    "phone": "+1-917-488-0973",
    "email": "info@barbellynyc.com",
    "website": "https://www.barbellynyc.com",
    "opening_hours": "Mo-We 17:00-01:00, Th-Sa 16:30-03:00, Su 17:00-01:00",
    "inserted_at": "2025-11-28T20:05:07.455126+00:00",
    "updated_at": "2025-11-28T20:05:07.455126+00:00",
    "latitude": 40.7151349,
    "longitude": -73.9916523,
    "url_slug": "bar-belly"
  },
  {
    "uuid": "2a96dfd4-b7cb-4d5d-86f8-29e3898df0df",
    "name": "Corthaiyou",
    "address": "1310, Cortelyou Road, Brooklyn, NY, 11226",
    "geo_location": "POINT(-73.9658063 40.6404285)",
    "phone": "+1-718-676-7388",
    "email": "corthaiyou.1310@gmail.com",
    "website": "https://www.corthaiyou.com/",
    "opening_hours": "Mo-Th 11:30-15:00,16:00-22:00; Fr 11:30-15:00,16:00-22:00; Sa,Su 11:30-22:00",
    "inserted_at": "2025-11-28T20:05:07.455126+00:00",
    "updated_at": "2025-11-28T20:05:07.455126+00:00",
    "latitude": 40.6404285,
    "longitude": -73.9658063,
    "url_slug": "corthaiyou"
  },
  {
    "uuid": "80324f7b-2f9a-4b72-a0ec-61a50346198d",
    "name": "Sukh",
    "address": "723, Fulton Street, NY, 11217",
    "geo_location": "POINT(-73.9763661 40.6872259)",
    "phone": "+1-347-494-1999",
    "email": "info@sukhthainyc.com",
    "website": "https://www.sukhnyc.com/",
    "opening_hours": "Mo-Su 12:00-22:00",
    "inserted_at": "2025-11-28T20:05:07.455126+00:00",
    "updated_at": "2025-11-28T20:05:07.455126+00:00",
    "latitude": 40.6872259,
    "longitude": -73.9763661,
    "url_slug": "sukh"
  },
  {
    "uuid": "7b9636fe-df45-4216-bdb9-a986c335f27b",
    "name": "Mikaku",
    "address": "85A, Kenmare Street, 10012",
    "geo_location": "POINT(-73.9969231 40.7214189)",
    "phone": "+1-212-431-4820",
    "email": "corinaqiu@gmail.com",
    "website": "https://www.mikakusushiny.com",
    "opening_hours": "Mo-Th 11:30-22:30; Fr-Sa 11:30-23:00; Su 12:00-22:30",
    "inserted_at": "2025-11-28T20:05:07.455126+00:00",
    "updated_at": "2025-11-28T20:05:07.455126+00:00",
    "latitude": 40.7214189,
    "longitude": -73.9969231,
    "url_slug": "mikaku"
  },
  {
    "uuid": "4c5df035-193d-4dbf-a316-a73ae4c20a72",
    "name": "19 Cleveland",
    "address": "19, Cleveland Place, New York, NY, 10012",
    "geo_location": "POINT(-73.9972123 40.7216382)",
    "phone": "+1-646-823-9227",
    "email": "info@19cleveland.com",
    "website": "https://19cleveland.com/",
    "opening_hours": "Mo-Su 11:00-23:00",
    "inserted_at": "2025-11-28T20:05:07.455126+00:00",
    "updated_at": "2025-11-28T20:05:07.455126+00:00",
    "latitude": 40.7216382,
    "longitude": -73.9972123,
    "url_slug": "19-cleveland"
  },
  {
    "uuid": "9c561eed-2be8-46a5-8f6f-ce7dc546abfb",
    "name": "Osteria Morini",
    "address": "218, Lafayette Street",
    "geo_location": "POINT(-73.9976726 40.7219323)",
    "phone": "+1-212-965-8777",
    "email": "info@osteriamorini.com",
    "website": "https://osteriamorini.com/soho-nyc/",
    "opening_hours": "Mo 12:00-23:00; Tu-Th 12:00-22:30; Fr 12:00-23:30; Sa 11:30-23:30; Su 11:30-22:00",
    "inserted_at": "2025-11-28T20:05:07.455126+00:00",
    "updated_at": "2025-11-28T20:05:07.455126+00:00",
    "latitude": 40.7219323,
    "longitude": -73.9976726,
    "url_slug": "osteria-morini"
  },
  {
    "uuid": "c4b8fe0f-44aa-4534-b57e-5ffba97310fe",
    "name": "Arte Cafe",
    "address": "106, West 73rd Street, New York, NY, 10023",
    "geo_location": "POINT(-73.978758 40.7781493)",
    "phone": "+1-212-501-7014",
    "email": "nycrg12@gmail.com",
    "website": "https://www.artecafenyc.com",
    "opening_hours": "Mo-Fr 12:00-23:00; Sa 11:00-24:00; Su 11:00-23:00",
    "inserted_at": "2025-11-28T20:05:07.455126+00:00",
    "updated_at": "2025-11-28T20:05:07.455126+00:00",
    "latitude": 40.7781493,
    "longitude": -73.978758,
    "url_slug": "arte-cafe"
  },
  {
    "uuid": "9259329c-9c14-4070-99a9-fdf8cc9c1152",
    "name": "Bootlegger's on Broadway",
    "address": "200, Broadway, Troy, NY, 12180",
    "geo_location": "POINT(-73.6910273 42.731504)",
    "phone": "+1-518-874-4475",
    "email": "Bootleggers200@yahoo.com",
    "website": "https://www.bootleggerstroy.com/",
    "opening_hours": "Mo-Fr 15:30-18:00+; Sa 11:00-18:00+; Su 12:00-18:00+",
    "inserted_at": "2025-11-28T20:05:07.455126+00:00",
    "updated_at": "2025-11-28T20:05:07.455126+00:00",
    "latitude": 42.731504,
    "longitude": -73.6910273,
    "url_slug": "bootleggers-on-broadway"
  },
  {
    "uuid": "4f885000-7949-4c29-a85b-7d0894dd1351",
    "name": "Harvest",
    "address": "269, Columbus Avenue, New York",
    "geo_location": "POINT(-73.9782956 40.7777871)",
    "phone": "+1-646-870-0810",
    "email": "tracy.b@agkitchen.com",
    "website": "http://harvestkitchennyc.com",
    "opening_hours": "Mo-Th 11:30-22:00; Fr 11:30-23:00; Sa 10:30-23:00; Su 10:30-22:00",
    "inserted_at": "2025-11-28T20:05:07.455126+00:00",
    "updated_at": "2025-11-28T20:05:07.455126+00:00",
    "latitude": 40.7777871,
    "longitude": -73.9782956,
    "url_slug": "harvest"
  },
  {
    "uuid": "2b0fc574-1e6a-44a7-95fa-e94578c5b43f",
    "name": "El Mitote",
    "address": "208, Columbus Ave, New York, NY, 10023",
    "geo_location": "POINT(-73.9801978 40.775834)",
    "phone": "+1-212-874-2929",
    "email": "hello@beyondrestgroup.com",
    "website": "https://www.elmitoteny.com/",
    "opening_hours": "Mo-Su 11:30-22:00",
    "inserted_at": "2025-11-28T20:05:07.455126+00:00",
    "updated_at": "2025-11-28T20:05:07.455126+00:00",
    "latitude": 40.775834,
    "longitude": -73.9801978,
    "url_slug": "el-mitote"
  },
  {
    "uuid": "203cb3f9-69cb-45de-ae04-78ffa2e14cba",
    "name": "Heidelberg Restaurant",
    "address": "1648, 2nd Avenue, 10028",
    "geo_location": "POINT(-73.9518046 40.7774628)",
    "phone": "+1-212-628-2332",
    "email": "HeidelbergReservations@gmail.com",
    "website": "http://www.heidelberg-nyc.com/",
    "opening_hours": "Mo-Su 11:00-24:00",
    "inserted_at": "2025-11-28T20:05:07.455126+00:00",
    "updated_at": "2025-11-28T20:05:07.455126+00:00",
    "latitude": 40.7774628,
    "longitude": -73.9518046,
    "url_slug": "heidelberg-restaurant"
  },
  {
    "uuid": "2949d5af-feaa-4420-9c21-909c85670343",
    "name": "L'Osteria",
    "address": "1219, Lexington Avenue, New York, NY, 10028",
    "geo_location": "POINT(-73.9571264 40.7771504)",
    "phone": "+1-646-524-6294",
    "email": "info@losterianyc.com",
    "website": "https://www.losterianyc.com",
    "opening_hours": "12:00-22:00",
    "inserted_at": "2025-11-28T20:05:07.455126+00:00",
    "updated_at": "2025-11-28T20:05:07.455126+00:00",
    "latitude": 40.7771504,
    "longitude": -73.9571264,
    "url_slug": "losteria"
  },
  {
    "uuid": "13e1431e-b06d-4dd7-b9c9-e410f15d7f2f",
    "name": "Tandoor Oven",
    "address": "175, East 83rd Street, New York, NY, 10028",
    "geo_location": "POINT(-73.9556075 40.7770648)",
    "phone": "+1-212-628-3000",
    "email": "info@tandooroven.com",
    "website": "https://www.tandooroven.com/",
    "opening_hours": "Tu-Th, Su 12:00-22:00; Fr, Sa 12:00-22:30",
    "inserted_at": "2025-11-28T20:05:07.455126+00:00",
    "updated_at": "2025-11-28T20:05:07.455126+00:00",
    "latitude": 40.7770648,
    "longitude": -73.9556075,
    "url_slug": "tandoor-oven"
  },
  {
    "uuid": "db491378-6c4f-44b5-b7cb-4a3a6a1b4053",
    "name": "Hudson Social",
    "address": "11, Station Plaza, Dobbs Ferry, NY, 10522",
    "geo_location": "POINT(-73.8796487 41.0124483)",
    "phone": "+1-914-478-3634",
    "email": "hsocialevents@gmail.com",
    "website": "https://hudsonsocial.com",
    "opening_hours": "Mo-Th 06:00-11:00, 12:00-21:00; Fr 06:00-11:00, 12:00-22:00; Sa 12:00-22:00; Su 12:00-21:00",
    "inserted_at": "2025-11-28T20:05:07.455126+00:00",
    "updated_at": "2025-11-28T20:05:07.455126+00:00",
    "latitude": 41.0124483,
    "longitude": -73.8796487,
    "url_slug": "hudson-social"
  },
  {
    "uuid": "6d7fff02-0013-48cb-93e5-1c02731c71fa",
    "name": "HinoMaru Ramen",
    "address": "33-18, Ditmars Boulevard, Astoria, NY, 11105",
    "geo_location": "POINT(-73.9091985 40.7748923)",
    "phone": "+1-718-777-0228",
    "email": "info@hinomaruramen.com",
    "website": "https://www.hinomaruramen.com/",
    "opening_hours": "Mo-Th 12:00-14:30,16:30-22:00; Fr-Su 12:00-15:30,16:30-22:00",
    "inserted_at": "2025-11-28T20:05:07.455126+00:00",
    "updated_at": "2025-11-28T20:05:07.455126+00:00",
    "latitude": 40.7748923,
    "longitude": -73.9091985,
    "url_slug": "hinomaru-ramen"
  },
  {
    "uuid": "8d1b42fe-8278-4eaa-ae13-6f66f267f239",
    "name": "Lil' Frankies",
    "address": "19, 1st Avenue, New York, NY, 10003",
    "geo_location": "POINT(-73.9884552 40.7235847)",
    "phone": "+1-212-420-4900",
    "email": "reservations@frankcares.com",
    "website": "https://www.lilfrankies.com/",
    "opening_hours": "Mo-Th 11:00-02:00; Fr-Sa 11:00-04:00; Su 11:00-02:00",
    "inserted_at": "2025-11-28T20:05:07.455126+00:00",
    "updated_at": "2025-11-28T20:05:07.455126+00:00",
    "latitude": 40.7235847,
    "longitude": -73.9884552,
    "url_slug": "lil-frankies"
  },
  {
    "uuid": "728e6a85-a5c6-4e2e-a5f6-7dc2bede854b",
    "name": "Calexico",
    "address": "278B, 5th Avenue, 11215",
    "geo_location": "POINT(-73.9822458 40.6742831)",
    "phone": "+1-347-254-7644",
    "email": "parkslope@calexico.com",
    "website": "https://www.calexico.com/location/park-slope/",
    "opening_hours": "Mo-Su 12:00-22:00",
    "inserted_at": "2025-11-28T20:05:07.455126+00:00",
    "updated_at": "2025-11-28T20:05:07.455126+00:00",
    "latitude": 40.6742831,
    "longitude": -73.9822458,
    "url_slug": "calexico"
  },
  {
    "uuid": "24446d8d-0657-4cdc-994f-1cc8ad93c83e",
    "name": "Otro Cinco",
    "address": "206, South Warren Street, Syracuse, NY, 13202",
    "geo_location": "POINT(-76.1509424 43.0492951)",
    "phone": "+1-315-422-6876",
    "email": "alto5cinco@gmail.com",
    "website": "http://www.otro5cinco.com",
    "opening_hours": "Mo-Fr 10:00-22:00; Sa 16:00-22:00; Su 11:00-22:00",
    "inserted_at": "2025-11-28T20:05:07.455126+00:00",
    "updated_at": "2025-11-28T20:05:07.455126+00:00",
    "latitude": 43.0492951,
    "longitude": -76.1509424,
    "url_slug": "otro-cinco"
  },
  {
    "uuid": "77a1eed7-cd6f-490b-8b08-534382fd533c",
    "name": "Izakaya Tenzo",
    "address": "1116, Bedford Avenue, Brooklyn, NY, 11216",
    "geo_location": "POINT(-73.954677 40.6863711)",
    "phone": "+1-347-240-2016",
    "email": "jpv36@izakayatenzo.com",
    "website": "https://izakayatenzo.com",
    "opening_hours": "Tu-Su 17:00-22:30",
    "inserted_at": "2025-11-28T20:05:07.455126+00:00",
    "updated_at": "2025-11-28T20:05:07.455126+00:00",
    "latitude": 40.6863711,
    "longitude": -73.954677,
    "url_slug": "izakaya-tenzo"
  },
  {
    "uuid": "eee0245e-09b9-41dc-8349-cf2aecc711cc",
    "name": "Secret Garden",
    "address": "2731, Erie Boulevard East, Syracuse, NY, 13224",
    "geo_location": "POINT(-76.0969298 43.0551392)",
    "phone": "+1-315-449-3333",
    "email": "info@BiwonSyracuse.com",
    "website": "https://www.biwonsyracuse.com/secret-garden.html",
    "opening_hours": "Su-Th 11:30-22:00; Fr-Sa 11:30-23:00",
    "inserted_at": "2025-11-28T20:05:07.455126+00:00",
    "updated_at": "2025-11-28T20:05:07.455126+00:00",
    "latitude": 43.0551392,
    "longitude": -76.0969298,
    "url_slug": "secret-garden"
  },
  {
    "uuid": "55da3bf3-cc8c-4a24-8da9-e86507ff336a",
    "name": "Red Chili Restaurant",
    "address": "2740, Erie Boulevard East, Syracuse, NY, 13224",
    "geo_location": "POINT(-76.0962459 43.0541731)",
    "phone": "+1-315-446-2882",
    "email": "sreeenath@inspentech.in",
    "website": "http://www.redchilirestaurant.com",
    "opening_hours": "Mo-Th 11:00-22:00; Fr,Sa 11:00-22:30; Su 11:30-22:00",
    "inserted_at": "2025-11-28T20:05:07.455126+00:00",
    "updated_at": "2025-11-28T20:05:07.455126+00:00",
    "latitude": 43.0541731,
    "longitude": -76.0962459,
    "url_slug": "red-chili-restaurant"
  },
  {
    "uuid": "8a60f16c-b340-402e-a583-f7d4a919ce4a",
    "name": "Baar Baar",
    "address": "13, East 1st Street, 10003",
    "geo_location": "POINT(-73.9915125 40.7244268)",
    "phone": "+1-212-228-1200",
    "email": "Info@baarbaarnyc.com",
    "website": "https://baarbaarnyc.com",
    "opening_hours": "Mo-Su 16:30-22:00",
    "inserted_at": "2025-11-28T20:05:07.455126+00:00",
    "updated_at": "2025-11-28T20:05:07.455126+00:00",
    "latitude": 40.7244268,
    "longitude": -73.9915125,
    "url_slug": "baar-baar"
  },
  {
    "uuid": "49de2bbf-e85c-4eb7-9402-22204b59673a",
    "name": "Modern Restaurant & Lounge",
    "address": "310, Huguenot Street, New Rochelle, NY, 10801",
    "geo_location": "POINT(-73.7842226 40.9089094)",
    "phone": "+1-914-633-9479",
    "email": "modernrestaurant310@gmail.com",
    "website": "https://www.modernrestaurant.com/",
    "opening_hours": "Mo 16:00-22:00; Tu-Th 11:30-22:30; Fr-Sa 13:00-23:30; Su 12:00-21:30",
    "inserted_at": "2025-11-28T20:05:07.455126+00:00",
    "updated_at": "2025-11-28T20:05:07.455126+00:00",
    "latitude": 40.9089094,
    "longitude": -73.7842226,
    "url_slug": "modern-restaurant-lounge"
  },
  {
    "uuid": "43c3d48d-167a-4873-847b-4d42f099e916",
    "name": "Gemini Diner",
    "address": "641, 2nd Avenue, 10016",
    "geo_location": "POINT(-73.975659 40.7454088)",
    "phone": "+1-212-532-2143",
    "email": "info@geminidiner.com",
    "website": "https://www.geminidiner.com",
    "opening_hours": "24/7",
    "inserted_at": "2025-11-28T20:05:07.455126+00:00",
    "updated_at": "2025-11-28T20:05:07.455126+00:00",
    "latitude": 40.7454088,
    "longitude": -73.975659,
    "url_slug": "gemini-diner"
  },
  {
    "uuid": "12b8caf4-d982-402f-8400-23e67972f687",
    "name": "Kosan Asian Fusion",
    "address": "1657, Sheepshead Bay Road, Brooklyn, NY, 11235",
    "geo_location": "POINT(-73.9520516 40.5864054)",
    "phone": "+1-718-872-7770",
    "email": "kosan1657@gmail.com",
    "website": "https://kosanny.com/",
    "opening_hours": "Mo-Th 11:00-22:00; Fr 11:00-23:00; Sa 12:00-23:00; Su 12:00-22:00",
    "inserted_at": "2025-11-28T20:05:07.455126+00:00",
    "updated_at": "2025-11-28T20:05:07.455126+00:00",
    "latitude": 40.5864054,
    "longitude": -73.9520516,
    "url_slug": "kosan-asian-fusion"
  },
  {
    "uuid": "5ed71b69-7945-4f20-b560-96025eb078f9",
    "name": "Blossom- Chelsea",
    "address": "187, 9th Avenue, New York",
    "geo_location": "POINT(-74.0022829 40.7454821)",
    "phone": "+1-212-627-1144",
    "email": "contact@blossomnyc.com",
    "website": "https://www.blossomnyc.com/",
    "opening_hours": "Su-Th 12:00-14:45; Fr-Sa 17:00-22:00",
    "inserted_at": "2025-11-28T20:05:07.455126+00:00",
    "updated_at": "2025-11-28T20:05:07.455126+00:00",
    "latitude": 40.7454821,
    "longitude": -74.0022829,
    "url_slug": "blossom--chelsea"
  },
  {
    "uuid": "93737968-b811-4976-9462-d182244e121d",
    "name": "Risotteria Melotti",
    "address": "309, East 5th Street, 10003",
    "geo_location": "POINT(-73.9883365 40.7266246)",
    "phone": "+1-646-755-8939",
    "email": "nyc@risotteriamelotti.com",
    "website": "https://www.risotteriamelottinyc.com",
    "opening_hours": "Mo-Th 16:00-22:30, Fr 16:00-23:00, Sa 11:30-23:00, Su 11:30-22:30",
    "inserted_at": "2025-11-28T20:05:07.455126+00:00",
    "updated_at": "2025-11-28T20:05:07.455126+00:00",
    "latitude": 40.7266246,
    "longitude": -73.9883365,
    "url_slug": "risotteria-melotti"
  },
  {
    "uuid": "b617cde5-bc49-489b-96da-f1a3d6bc2c06",
    "name": "Perizia kosher pizza",
    "address": "1626, East 16th Street",
    "geo_location": "POINT(-73.957691 40.609745)",
    "phone": "+1-718-513-4900",
    "email": "periziaavem@gmail.com",
    "website": "https://www.periziakosher.com/",
    "opening_hours": "Mo-We 10:00-20:30; Th 10:00-21:00; Fr 10:00-14:00; Sa 20:00-24:00; Su 10:30-20:30",
    "inserted_at": "2025-11-28T20:05:07.455126+00:00",
    "updated_at": "2025-11-28T20:05:07.455126+00:00",
    "latitude": 40.609745,
    "longitude": -73.957691,
    "url_slug": "perizia-kosher-pizza"
  },
  {
    "uuid": "97e33777-749b-4261-aeed-e462bfb7c049",
    "name": "The Modern - The Bar Room",
    "address": "9, West 53rd Street",
    "geo_location": "POINT(-73.9770877 40.7610807)",
    "phone": "+1-212-333-1220",
    "email": "info@themodernnyc.com",
    "website": "https://www.themodernnyc.com/",
    "opening_hours": "11:30-21:30",
    "inserted_at": "2025-11-28T20:05:07.455126+00:00",
    "updated_at": "2025-11-28T20:05:07.455126+00:00",
    "latitude": 40.7610807,
    "longitude": -73.9770877,
    "url_slug": "the-modern---the-bar-room"
  },
  {
    "uuid": "6003f48d-5381-4f8e-b939-586fa4d6fed2",
    "name": "Her Name is Han",
    "address": "17, East 31st Street, New York, NY, 10016",
    "geo_location": "POINT(-73.9847787 40.7461934)",
    "phone": "+1-212-779-9990",
    "email": "hernameishan@gmail.com",
    "website": "https://www.hernameishan.com",
    "opening_hours": "Mo-Su 12:00-14:30; Mo-Fr 17:30-23:00; Sa-Su 17:30-24:00",
    "inserted_at": "2025-11-28T20:05:07.455126+00:00",
    "updated_at": "2025-11-28T20:05:07.455126+00:00",
    "latitude": 40.7461934,
    "longitude": -73.9847787,
    "url_slug": "her-name-is-han"
  },
  {
    "uuid": "7a459faa-5ae8-4515-a095-dad61414196c",
    "name": "Arden",
    "address": "788, Franklin Avenue, 11238",
    "geo_location": "POINT(-73.9577516 40.6716952)",
    "phone": "+1-718-484-3266",
    "email": "hello@ardenbk.com",
    "website": "https://www.ardenbk.com",
    "opening_hours": "Tu-Th 17:00-23:00; Fr-Sa 17:00-24:00",
    "inserted_at": "2025-11-28T20:05:07.455126+00:00",
    "updated_at": "2025-11-28T20:05:07.455126+00:00",
    "latitude": 40.6716952,
    "longitude": -73.9577516,
    "url_slug": "arden"
  },
  {
    "uuid": "efd66260-18da-4cb5-8376-ee134ba2bee8",
    "name": "Cho Dang Gol",
    "address": "55, West 35th Street, 10018",
    "geo_location": "POINT(-73.9863439 40.7501714)",
    "phone": "+1-212-695-8222",
    "email": "cdgny35@gmail.com",
    "website": "https://chodanggolnyc.com",
    "opening_hours": "Mo-Th 12:00-15:00,17:00-21:30, Fr-Su 12:00-21:30",
    "inserted_at": "2025-11-28T20:05:07.455126+00:00",
    "updated_at": "2025-11-28T20:05:07.455126+00:00",
    "latitude": 40.7501714,
    "longitude": -73.9863439,
    "url_slug": "cho-dang-gol"
  },
  {
    "uuid": "59819169-3a96-4cd9-864e-99acd9f9b576",
    "name": "Cafe China",
    "address": "59, West 37th Street, New York, NY, 10018",
    "geo_location": "POINT(-73.9858142 40.7515794)",
    "phone": "+1-212-213-2810",
    "email": "cafechina.nyc@gmail.com",
    "website": "http://www.cafechinanyc.com/",
    "opening_hours": "Su-We 11:30-22:30; Th-Sa 11:30-23:00",
    "inserted_at": "2025-11-28T20:05:07.455126+00:00",
    "updated_at": "2025-11-28T20:05:07.455126+00:00",
    "latitude": 40.7515794,
    "longitude": -73.9858142,
    "url_slug": "cafe-china"
  },
  {
    "uuid": "43c9db5b-05a6-4828-9167-dc97d79c2371",
    "name": "Sylvia's Restaurant",
    "address": "328, Malcolm X Boulevard, New York, 10027",
    "geo_location": "POINT(-73.9445189 40.8086285)",
    "phone": "+1-212-996-0660",
    "email": "info@sylviasrestaurant.com",
    "website": "https://sylviasrestaurant.com/",
    "opening_hours": "Mo-Tu 11:00-22:30; We-Sa 09:00-22:30; Su 11:00-20:00",
    "inserted_at": "2025-11-28T20:05:07.455126+00:00",
    "updated_at": "2025-11-28T20:05:07.455126+00:00",
    "latitude": 40.8086285,
    "longitude": -73.9445189,
    "url_slug": "sylvias-restaurant"
  },
  {
    "uuid": "e86d1c8f-f11b-4008-8000-2408b9b89b07",
    "name": "Break'n Eggs Creperie",
    "address": "5235, Main Street, Williamsville, NY, 14221",
    "geo_location": "POINT(-78.7575385 42.9605364)",
    "phone": "+1-716-634-3447",
    "email": "Breakneggscreperie@gmail.com",
    "website": "https://www.breakneggs-creperie.com/",
    "opening_hours": "Tu-Su 07:00-15:00",
    "inserted_at": "2025-11-28T20:05:07.455126+00:00",
    "updated_at": "2025-11-28T20:05:07.455126+00:00",
    "latitude": 42.9605364,
    "longitude": -78.7575385,
    "url_slug": "breakn-eggs-creperie"
  },
  {
    "uuid": "88fdba90-ad3d-40eb-937b-89065b49afd8",
    "name": "Le Botaniste",
    "address": "833, Lexington Avenue, 10065",
    "geo_location": "POINT(-73.9659528 40.7650017)",
    "phone": "+1-917-262-0766",
    "email": "info@lebotaniste.us",
    "website": "https://lebotaniste.us/",
    "opening_hours": "Mo-Su 11:00-21:00",
    "inserted_at": "2025-11-28T20:05:07.455126+00:00",
    "updated_at": "2025-11-28T20:05:07.455126+00:00",
    "latitude": 40.7650017,
    "longitude": -73.9659528,
    "url_slug": "le-botaniste"
  },
  {
    "uuid": "35ab1f0d-48d5-428e-bcda-0d3304f30d91",
    "name": "Nom Wah Tea Parlor",
    "address": "13, Doyers Street, New York, 10013",
    "geo_location": "POINT(-73.9981968 40.7144593)",
    "phone": "+1-212-962-6047",
    "email": "info@nomwah.com",
    "website": "https://nomwah.com/",
    "opening_hours": "Th-Tu 11:00-21:00",
    "inserted_at": "2025-11-28T20:05:07.455126+00:00",
    "updated_at": "2025-11-28T20:05:07.455126+00:00",
    "latitude": 40.7144593,
    "longitude": -73.9981968,
    "url_slug": "nom-wah-tea-parlor"
  },
  {
    "uuid": "a91332d4-7481-464e-8705-89ed4d5abe6c",
    "name": "International Wings Factory",
    "address": "1762, 1st Avenue, 10128",
    "geo_location": "POINT(-73.94668 40.7802569)",
    "phone": "+1-212-348-2627",
    "email": "internationalwingsfactory@gmail.com",
    "website": "https://internationalwingsfactory.com",
    "opening_hours": "Mo, Tu 17:30-22:00; We-Su 11:30-15:00, 16:15-22:00",
    "inserted_at": "2025-11-28T20:05:07.455126+00:00",
    "updated_at": "2025-11-28T20:05:07.455126+00:00",
    "latitude": 40.7802569,
    "longitude": -73.94668,
    "url_slug": "international-wings-factory"
  },
  {
    "uuid": "87c03e86-442f-4f2e-8785-1c4179d1cde1",
    "name": "Dirt Candy",
    "address": "86, Allen Street, New York, NY, 10002",
    "geo_location": "POINT(-73.9907886 40.7178785)",
    "phone": "+1-212-228-7732",
    "email": "info@dirtcandynyc.com",
    "website": "https://www.dirtcandynyc.com/",
    "opening_hours": "Tu-Sa 17:30-20:30",
    "inserted_at": "2025-11-28T20:05:07.455126+00:00",
    "updated_at": "2025-11-28T20:05:07.455126+00:00",
    "latitude": 40.7178785,
    "longitude": -73.9907886,
    "url_slug": "dirt-candy"
  },
  {
    "uuid": "981010dd-f997-4bcb-b4a0-e2a587fbfa7b",
    "name": "Pomodoro Rosso",
    "address": "229 Columbus Ave New York, NY 10023",
    "geo_location": "POINT(-73.9793251 40.7763934)",
    "phone": "+1-212-721-3009",
    "email": "info@pomodororossonyc.com",
    "website": "https://www.pomodororossonyc.com/",
    "opening_hours": "Mo-Th 12:00-22:00; Fr-Sa 12:00-23:00; Su 12:00-22:00",
    "inserted_at": "2025-11-28T20:05:07.455126+00:00",
    "updated_at": "2025-11-28T20:05:07.455126+00:00",
    "latitude": 40.7763934,
    "longitude": -73.9793251,
    "url_slug": "pomodoro-rosso"
  },
  {
    "uuid": "00a3069e-bd41-40f0-b988-bf736401cbd7",
    "name": "Serendipity 3",
    "address": "225, East 60th Street",
    "geo_location": "POINT(-73.9649381 40.7618022)",
    "phone": "+1-212-838-3531",
    "email": "info@serendipity3.com",
    "website": "https://serendipity3.com/",
    "opening_hours": "Mo-Th, Su 11:30-24:00; Fr, Sa 11:30-01:00",
    "inserted_at": "2025-11-28T20:05:07.455126+00:00",
    "updated_at": "2025-11-28T20:05:07.455126+00:00",
    "latitude": 40.7618022,
    "longitude": -73.9649381,
    "url_slug": "serendipity-3"
  },
  {
    "uuid": "9cc2f1b0-fa6e-4dac-a858-fbe0e6de5efb",
    "name": "Beetle House NYC",
    "address": "308, East 6th Street, New York, NY, 10003",
    "geo_location": "POINT(-73.9880314 40.72708)",
    "phone": "+1-646-510-4786",
    "email": "%20info@beetlehousenyc.com",
    "website": "https://beetlehousenyc.com/",
    "opening_hours": "Tu,We,Su 16:00-23:30, Th-Sa 16:00-02:00",
    "inserted_at": "2025-11-28T20:05:07.455126+00:00",
    "updated_at": "2025-11-28T20:05:07.455126+00:00",
    "latitude": 40.72708,
    "longitude": -73.9880314,
    "url_slug": "beetle-house-nyc"
  },
  {
    "uuid": "fde5ddf5-9a20-4b16-9669-df964c2f8359",
    "name": "The Yelling Goat",
    "address": "205, Central Avenue, Lancaster, NY, 14086",
    "geo_location": "POINT(-78.6715672 42.9089258)",
    "phone": "+1-716-683-0462",
    "email": "jonpinhorn.typedesign@gmail.com",
    "website": "http://theyellinggoat.com",
    "opening_hours": "Mo-Th 11:00-22:00, Fr-Sa 11:00-23:00, Su 12:00-21:00",
    "inserted_at": "2025-11-28T20:05:07.455126+00:00",
    "updated_at": "2025-11-28T20:05:07.455126+00:00",
    "latitude": 42.9089258,
    "longitude": -78.6715672,
    "url_slug": "the-yelling-goat"
  },
  {
    "uuid": "7d3f06c7-b968-46e8-94c9-4e8c5a9992a5",
    "name": "Valentines Pizza & Deli",
    "address": "18, West Genesee Street, Village of Skaneateles, NY, 13152",
    "geo_location": "POINT(-76.430398 42.9456501)",
    "phone": "+1-315-685-8804",
    "email": "amkryukov@gmail.com",
    "website": "http://www.valentinespizza.com/",
    "opening_hours": "Mo-Su 11:00-21:00",
    "inserted_at": "2025-11-28T20:05:07.455126+00:00",
    "updated_at": "2025-11-28T20:05:07.455126+00:00",
    "latitude": 42.9456501,
    "longitude": -76.430398,
    "url_slug": "valentines-pizza-deli"
  },
  {
    "uuid": "e2b14ef2-c6d3-44e2-a288-d3c2f3d2f478",
    "name": "The Commodore",
    "address": "366, Metropolitan Avenue, Brooklyn, 11211",
    "geo_location": "POINT(-73.9558034 40.7139513)",
    "phone": "+1-718-218-7632",
    "email": "info@TheCommodoreBars.com",
    "website": "https://thecommodorebrooklyn.com/",
    "opening_hours": "Sa, Su 14:00-04:00; Mo-Fr 16:00-02:00",
    "inserted_at": "2025-11-28T20:05:07.455126+00:00",
    "updated_at": "2025-11-28T20:05:07.455126+00:00",
    "latitude": 40.7139513,
    "longitude": -73.9558034,
    "url_slug": "the-commodore"
  },
  {
    "uuid": "932a363c-bc1b-41ad-9918-8977545fb691",
    "name": "Porteño",
    "address": "299, 10th Avenue, New York, NY, 10001",
    "geo_location": "POINT(-74.0024185 40.7504599)",
    "phone": "+1-212-695-9694",
    "email": "admin@portenonyc.com",
    "website": "https://portenorestaurant.com/",
    "opening_hours": "Mo-We 16:00-21:00; Th-Fr 16:00-22:00; Sa 12:00-22:00; Su 12:00-20:30",
    "inserted_at": "2025-11-28T20:05:07.455126+00:00",
    "updated_at": "2025-11-28T20:05:07.455126+00:00",
    "latitude": 40.7504599,
    "longitude": -74.0024185,
    "url_slug": "porteo"
  },
  {
    "uuid": "eca02082-d1af-4141-a545-a92aaf90f2d4",
    "name": "Storm King Lounge and Fare",
    "address": "2, Idlewild Avenue, Cornwall-on-Hudson, NY, 12520",
    "geo_location": "POINT(-74.0156686 41.4453403)",
    "phone": "+1-845-534-8646",
    "email": "info@stormkingloungeandfare.com",
    "website": "https://www.stormkingloungeandfare.com/",
    "opening_hours": "We-Sa 16:00-22:00; Su 10:00-15:00",
    "inserted_at": "2025-11-28T20:05:07.455126+00:00",
    "updated_at": "2025-11-28T20:05:07.455126+00:00",
    "latitude": 41.4453403,
    "longitude": -74.0156686,
    "url_slug": "storm-king-lounge-and-fare"
  },
  {
    "uuid": "145c90b8-0833-4cda-b15b-a7a723ff7673",
    "name": "Taqueria Sofia",
    "address": "187, Suydam Street, Brooklyn, NY, 11221",
    "geo_location": "POINT(-73.9256805 40.7002919)",
    "phone": "+1-347-407-8893",
    "email": "socaspon@gmail.com",
    "website": "https://sofiamexicanrestaurantny.com/",
    "opening_hours": "11:00-22:00; Mo off",
    "inserted_at": "2025-11-28T20:05:07.455126+00:00",
    "updated_at": "2025-11-28T20:05:07.455126+00:00",
    "latitude": 40.7002919,
    "longitude": -73.9256805,
    "url_slug": "taqueria-sofia"
  },
  {
    "uuid": "79054e4d-c7b0-4a09-9686-a0c2395b8951",
    "name": "Boqueria Soho",
    "address": "171, Spring Street, 10012",
    "geo_location": "POINT(-74.0022169 40.7248202)",
    "phone": "+1-212-343-4255",
    "email": "Soho@baqueriaNYC.com",
    "website": "https://boqueriarestaurant.com/tapas-bar-nyc-soho",
    "opening_hours": "Mo-Su 12:00-22:00",
    "inserted_at": "2025-11-28T20:05:07.455126+00:00",
    "updated_at": "2025-11-28T20:05:07.455126+00:00",
    "latitude": 40.7248202,
    "longitude": -74.0022169,
    "url_slug": "boqueria-soho"
  },
  {
    "uuid": "93e1089d-6ffd-49cf-b519-8e3d054557c8",
    "name": "EJ's Luncheonette",
    "address": "1271, 3rd Avenue, 10021",
    "geo_location": "POINT(-73.9597626 40.7704393)",
    "phone": "+1-212-472-0600",
    "email": "ejsluncheonette@gmail.com",
    "website": "https://www.ejsluncheonette.com/",
    "opening_hours": "08:00-22:00",
    "inserted_at": "2025-11-28T20:05:07.455126+00:00",
    "updated_at": "2025-11-28T20:05:07.455126+00:00",
    "latitude": 40.7704393,
    "longitude": -73.9597626,
    "url_slug": "ejs-luncheonette"
  },
  {
    "uuid": "308e4464-f4f0-49e0-bcd1-81040266aea3",
    "name": "Corkbuzz",
    "address": "13, East 13th Street, New York, NY, 10003",
    "geo_location": "POINT(-73.993152 40.7350302)",
    "phone": "+1-646-873-6071",
    "email": "events@corkbuzz.com",
    "website": "https://www.corkbuzz.com/",
    "opening_hours": "Su-Th 16:00-24:00; Fr-Sa 16:00-02:00",
    "inserted_at": "2025-11-28T20:05:07.455126+00:00",
    "updated_at": "2025-11-28T20:05:07.455126+00:00",
    "latitude": 40.7350302,
    "longitude": -73.993152,
    "url_slug": "corkbuzz"
  },
  {
    "uuid": "887406b9-20cf-4f8c-a7ea-39cb1bc104e4",
    "name": "Ariari",
    "address": "119, 1st Avenue, New York, NY, 10003",
    "geo_location": "POINT(-73.98579 40.7272468)",
    "phone": "+1-646-422-7466",
    "email": "info@ariarinyc.com",
    "website": "https://ariarinyc.com",
    "opening_hours": "Mo-Th 17:00-23:00; Fr: 17:00-24:00; Sa 16:30-24:00; Su 16:30-23:00",
    "inserted_at": "2025-11-28T20:05:07.455126+00:00",
    "updated_at": "2025-11-28T20:05:07.455126+00:00",
    "latitude": 40.7272468,
    "longitude": -73.98579,
    "url_slug": "ariari"
  },
  {
    "uuid": "9b58caa8-50f1-4fa6-83d9-00abd78eaeb9",
    "name": "Woorijip",
    "address": "12, West 32nd Street, New York, NY, 10001",
    "geo_location": "POINT(-73.9864528 40.7474399)",
    "phone": "+1-212-244-1115",
    "email": "info@woorijip32.com",
    "website": "http://woorijip32.com/",
    "opening_hours": "Mo-We 09:30-21:00; Fr-Su 09:30-22:00",
    "inserted_at": "2025-11-28T20:05:07.455126+00:00",
    "updated_at": "2025-11-28T20:05:07.455126+00:00",
    "latitude": 40.7474399,
    "longitude": -73.9864528,
    "url_slug": "woorijip"
  },
  {
    "uuid": "aa3b10bb-9d2e-412d-b5f3-c8448f767f99",
    "name": "Bryant Park Grill",
    "address": "25, West 40th Street, New York, NY, 10018",
    "geo_location": "POINT(-73.9829323 40.7532049)",
    "phone": "+1-212-840-6500",
    "email": "info@arkrestaurants.com",
    "website": "https://bryantparkgrillnyc.com/",
    "opening_hours": "Su-Sa 11:30-22:00",
    "inserted_at": "2025-11-28T20:05:07.455126+00:00",
    "updated_at": "2025-11-28T20:05:07.455126+00:00",
    "latitude": 40.7532049,
    "longitude": -73.9829323,
    "url_slug": "bryant-park-grill"
  },
  {
    "uuid": "d6f17b9a-07bf-44cb-833f-8ea00cf21ac2",
    "name": "Hudson Malone",
    "address": "218, East 53rd Street, New York, NY, 10022",
    "geo_location": "POINT(-73.9686379 40.7572639)",
    "phone": "+1-212-355-6607",
    "email": "hudsonmalonewestport@gmail.com",
    "website": "https://www.hudsonmalone.com/",
    "opening_hours": "Mo-Fr 11:30-04:00; Sa 11:00-04:00; Su 11:00-01:00",
    "inserted_at": "2025-11-28T20:05:07.455126+00:00",
    "updated_at": "2025-11-28T20:05:07.455126+00:00",
    "latitude": 40.7572639,
    "longitude": -73.9686379,
    "url_slug": "hudson-malone"
  },
  {
    "uuid": "29b55135-6e5c-45ca-8eec-00f449739b23",
    "name": "Blue-Park Kitchen",
    "address": "666, 3rd Avenue, New York, NY, 10017",
    "geo_location": "POINT(-73.974679 40.7516202)",
    "phone": "+1-646-760-2168",
    "email": "hello@blueparkkitchen.com",
    "website": "https://www.blueparkkitchen.com/location/midtown/",
    "opening_hours": "Mo-Fr 08:00-10:15,11:00-20:00",
    "inserted_at": "2025-11-28T20:05:07.455126+00:00",
    "updated_at": "2025-11-28T20:05:07.455126+00:00",
    "latitude": 40.7516202,
    "longitude": -73.974679,
    "url_slug": "blue-park-kitchen"
  },
  {
    "uuid": "99029948-4b27-493f-be78-b350441909d2",
    "name": "The Cabin",
    "address": "205, East 4th Street, New York, NY, 10009",
    "geo_location": "POINT(-73.9838019 40.7239695)",
    "phone": "+1-212-777-0454",
    "email": "impallari@gmail.com",
    "website": "https://thecabinnyc.com",
    "opening_hours": "Tu-Fr 16:00-02:00; Sa, Su 11:00-02:00",
    "inserted_at": "2025-11-28T20:05:07.455126+00:00",
    "updated_at": "2025-11-28T20:05:07.455126+00:00",
    "latitude": 40.7239695,
    "longitude": -73.9838019,
    "url_slug": "the-cabin"
  },
  {
    "uuid": "ca263090-afa1-43d2-aa79-07bd6cd478c1",
    "name": "Taboonette",
    "address": "30, East 13th Street, New York, 10003",
    "geo_location": "POINT(-73.9927932 40.734646)",
    "phone": "+1-212-510-7881",
    "email": "orders@taboonette.com",
    "website": "https://taboonette.com/",
    "opening_hours": "Mo-Su 10:00-22:00",
    "inserted_at": "2025-11-28T20:05:07.455126+00:00",
    "updated_at": "2025-11-28T20:05:07.455126+00:00",
    "latitude": 40.734646,
    "longitude": -73.9927932,
    "url_slug": "taboonette"
  },
  {
    "uuid": "c26f2d08-f369-4d8b-a7d1-ed5e644b89c7",
    "name": "Thai Market",
    "address": "960, Amsterdam Avenue, 10025",
    "geo_location": "POINT(-73.965277 40.801341)",
    "phone": "+1-212-280-4575",
    "email": "thaimarketny@gmail.com",
    "website": "https://thaimarketny.net/",
    "opening_hours": "Su-Th 12:00-22:00; Fr-Sa 12:00-23:00",
    "inserted_at": "2025-11-28T20:05:07.455126+00:00",
    "updated_at": "2025-11-28T20:05:07.455126+00:00",
    "latitude": 40.801341,
    "longitude": -73.965277,
    "url_slug": "thai-market"
  },
  {
    "uuid": "e0fae4bf-aee8-4c07-9e99-9f455568e4d9",
    "name": "Pommes Frites",
    "address": "128, MacDougal Street, New York, NY, 10012",
    "geo_location": "POINT(-74.0002841 40.7300993)",
    "phone": "+1-212-674-1234",
    "email": "contact@pommesfritesnyc.com",
    "website": "https://www.pommesfritesnyc.com/",
    "opening_hours": "Su-Th 11:00-01:00, Fr-Sa 11:00-03:00",
    "inserted_at": "2025-11-28T20:05:07.455126+00:00",
    "updated_at": "2025-11-28T20:05:07.455126+00:00",
    "latitude": 40.7300993,
    "longitude": -74.0002841,
    "url_slug": "pommes-frites"
  },
  {
    "uuid": "932dc423-9f69-443d-a6b6-617b5164f020",
    "name": "lupe's East L.A. Kitchen",
    "address": "110, 6th Avenue, 10013",
    "geo_location": "POINT(-74.0045295 40.723681)",
    "phone": "+1-212-966-1326",
    "email": "lupeskitchen4@gmail.com",
    "website": "https://lupeskitchen.com/",
    "opening_hours": "Tu 12:00-23:00; We-Fr 12:00-24:00; Sa 11:00-11:30; Su 11:00-23:00",
    "inserted_at": "2025-11-28T20:05:07.455126+00:00",
    "updated_at": "2025-11-28T20:05:07.455126+00:00",
    "latitude": 40.723681,
    "longitude": -74.0045295,
    "url_slug": "lupes-east-la-kitchen"
  },
  {
    "uuid": "9d924937-c642-4ba4-8984-fb2a3157c755",
    "name": "Ivan Ramen",
    "address": "25, Clinton Street, New York, NY, 10002",
    "geo_location": "POINT(-73.9844418 40.7205419)",
    "phone": "+1-646-678-3859",
    "email": "info@ivanramen.com",
    "website": "https://www.ivanramen.com/location/clinton-st/",
    "opening_hours": "Fr, Sa 12:30-23:00; Mo-Th, Su 12:30-22:00",
    "inserted_at": "2025-11-28T20:05:07.455126+00:00",
    "updated_at": "2025-11-28T20:05:07.455126+00:00",
    "latitude": 40.7205419,
    "longitude": -73.9844418,
    "url_slug": "ivan-ramen"
  },
  {
    "uuid": "d23c7a14-012d-48e5-925c-670fcf4cdaf0",
    "name": "Taiwan Pork Chop House",
    "address": "3, Doyers Street, 10013",
    "geo_location": "POINT(-73.9979466 40.7142816)",
    "phone": "+1-212-791-7007",
    "email": "noemail@gmail.com",
    "website": "https://taiwanporkchophouse.com",
    "opening_hours": "Mo,We-Su 10:30-21:00",
    "inserted_at": "2025-11-28T20:05:07.455126+00:00",
    "updated_at": "2025-11-28T20:05:07.455126+00:00",
    "latitude": 40.7142816,
    "longitude": -73.9979466,
    "url_slug": "taiwan-pork-chop-house"
  },
  {
    "uuid": "1ed87b51-d3ad-42fe-ba0a-272b2e652ed0",
    "name": "Karczma",
    "address": "136 Greenpoint Ave, Brooklyn, NY 11222",
    "geo_location": "POINT(-73.9551052 40.7298901)",
    "phone": "+1-718-349-1744",
    "email": "info@karczmabrooklyn.com",
    "website": "https://karczmabrooklyn.com/",
    "opening_hours": "Mo-Th 12:00-22:30; Fr-Sa 12:00-23:30; Su 12:00-22:00",
    "inserted_at": "2025-11-28T20:05:07.455126+00:00",
    "updated_at": "2025-11-28T20:05:07.455126+00:00",
    "latitude": 40.7298901,
    "longitude": -73.9551052,
    "url_slug": "karczma"
  },
  {
    "uuid": "41329277-7a12-464c-a377-cf5ae39e7803",
    "name": "The Waylon",
    "address": "736 10th Avenue Hell's Kitchen NYC",
    "geo_location": "POINT(-73.9915059 40.7647616)",
    "phone": "+1-212-265-0010",
    "email": "thewaylonnyc@gmail.com",
    "website": "https://www.thewaylon.com/",
    "opening_hours": "Mo-Su 12:00-04:00",
    "inserted_at": "2025-11-28T20:05:07.455126+00:00",
    "updated_at": "2025-11-28T20:05:07.455126+00:00",
    "latitude": 40.7647616,
    "longitude": -73.9915059,
    "url_slug": "the-waylon"
  },
  {
    "uuid": "03a1b3c5-b270-4c6f-8038-6ab77ccdc78d",
    "name": "Barbalu",
    "address": "68 Bergen Street Brooklyn, NY — 11201",
    "geo_location": "POINT(-74.0020779 40.7074502)",
    "phone": "+1-646-918-6565",
    "email": "Barbalubrooklyn@gmail.com",
    "website": "https://www.barbalu.com/",
    "opening_hours": "Mo-Sa 10:30-22:30; Su 11:00-21:30",
    "inserted_at": "2025-11-28T20:05:07.455126+00:00",
    "updated_at": "2025-11-28T20:05:07.455126+00:00",
    "latitude": 40.7074502,
    "longitude": -74.0020779,
    "url_slug": "barbalu"
  },
  {
    "uuid": "7d02e460-1bf2-45bb-999a-78b1c6e4cb96",
    "name": "Dorlan's Tavern & Oyster Bar",
    "address": "213 Front St, New York, NY, 10038",
    "geo_location": "POINT(-74.0023954 40.707271)",
    "phone": "+1-212-779-2222",
    "email": "info@dorlans.com",
    "website": "http://www.dorlans.com",
    "opening_hours": "Mo-Su 11:30-04:00",
    "inserted_at": "2025-11-28T20:05:07.455126+00:00",
    "updated_at": "2025-11-28T20:05:07.455126+00:00",
    "latitude": 40.707271,
    "longitude": -74.0023954,
    "url_slug": "dorlans-tavern-oyster-bar"
  },
  {
    "uuid": "5cb57cbf-223c-4b15-84dc-f7613d39b0e5",
    "name": "Nargis Cafe",
    "address": "1655, Sheepshead Bay Road, Brooklyn, NY, 11235",
    "geo_location": "POINT(-73.9552187 40.5861961)",
    "phone": "+1-718-872-7888",
    "email": "contact@nargiscafe.com",
    "website": "https://nargiscafe.com/",
    "opening_hours": "Mo-Fr 10:00-23:00; Sa-Su 09:00-23:00",
    "inserted_at": "2025-11-28T20:05:07.455126+00:00",
    "updated_at": "2025-11-28T20:05:07.455126+00:00",
    "latitude": 40.5861961,
    "longitude": -73.9552187,
    "url_slug": "nargis-cafe"
  },
  {
    "uuid": "0bfe47f1-ce23-4592-8e65-7ce586920c3e",
    "name": "Bacchus",
    "address": "409-411, Atlantic Avenue, Brooklyn, 11217",
    "geo_location": "POINT(-73.9843598 40.6869246)",
    "phone": "+1-718-852-1572",
    "email": "bacchusinfo@gmail.com",
    "website": "http://bacchusbistro.com/",
    "opening_hours": "Mo-Th 17:00-22:30; Fr 17:00-23:00; Sa 10:30-16:00,17:00-23:00; Su 10:30-16:00,17:00-22:30",
    "inserted_at": "2025-11-28T20:05:07.455126+00:00",
    "updated_at": "2025-11-28T20:05:07.455126+00:00",
    "latitude": 40.6869246,
    "longitude": -73.9843598,
    "url_slug": "bacchus"
  },
  {
    "uuid": "61680529-52ac-4d53-9514-0cad8b36775a",
    "name": "Golden Wuish",
    "address": "6, Platt Street, 10038",
    "geo_location": "POINT(-74.0066143 40.7074441)",
    "phone": "+1-212-273-9296",
    "email": "wuishplattstreet@gmail.com",
    "website": "https://www.goldenwuish.com/",
    "opening_hours": "Mo-Su 12:00-23:00",
    "inserted_at": "2025-11-28T20:05:07.455126+00:00",
    "updated_at": "2025-11-28T20:05:07.455126+00:00",
    "latitude": 40.7074441,
    "longitude": -74.0066143,
    "url_slug": "golden-wuish"
  },
  {
    "uuid": "6d42e200-ce20-40c3-bb93-1394f5676625",
    "name": "Cantina Mexicana",
    "address": "140, New Dorp Lane, Staten Island, NY, 10306",
    "geo_location": "POINT(-74.1160555 40.5736859)",
    "phone": "+1-718-351-5474",
    "email": "%20cantinamexicanasi@gmail.com",
    "website": "https://www.cantinamexicanasi.com/",
    "opening_hours": "11:00-23:00",
    "inserted_at": "2025-11-28T20:05:07.455126+00:00",
    "updated_at": "2025-11-28T20:05:07.455126+00:00",
    "latitude": 40.5736859,
    "longitude": -74.1160555,
    "url_slug": "cantina-mexicana"
  },
  {
    "uuid": "6c69d9d0-9131-4690-adf8-22154b879213",
    "name": "Chano's Cantina",
    "address": "35-55, 31st Street, 11106",
    "geo_location": "POINT(-73.9294381 40.7566589)",
    "phone": "+1-917-832-7261",
    "email": "chanoscantinany@gmail.com",
    "website": "https://www.chanoscantina.com/",
    "opening_hours": "Mo-Fr 12:00-23:00; Sa 11:00-24:00; Su 12:00-24:00",
    "inserted_at": "2025-11-28T20:05:07.455126+00:00",
    "updated_at": "2025-11-28T20:05:07.455126+00:00",
    "latitude": 40.7566589,
    "longitude": -73.9294381,
    "url_slug": "chanos-cantina"
  },
  {
    "uuid": "ef27f64a-056c-48de-96ca-1163030b6a69",
    "name": "Cazenovia Bagel Co.",
    "address": "79, Nelson Street, Cazenovia, NY, 13035",
    "geo_location": "POINT(-75.8417156 42.9271742)",
    "phone": "+1-315-815-4209",
    "email": "cazbagelco@gmail.com",
    "website": "https://www.cazenoviabagelco.com",
    "opening_hours": "Mo closed; Tu-Su 06:30-14:00",
    "inserted_at": "2025-11-28T20:05:07.455126+00:00",
    "updated_at": "2025-11-28T20:05:07.455126+00:00",
    "latitude": 42.9271742,
    "longitude": -75.8417156,
    "url_slug": "cazenovia-bagel-co"
  },
  {
    "uuid": "555a4ac6-8618-42d0-a3ca-25b60462b474",
    "name": "La Piazza Pizzeria & Restaurant",
    "address": "1445, Richmond Avenue, Staten Island, NY, 10314",
    "geo_location": "POINT(-74.1576239 40.6118549)",
    "phone": "+1-718-370-0707",
    "email": "contact@lapiazzasi.com",
    "website": "https://www.lapiazzasi.com/",
    "opening_hours": "Mo-Th 11:00-22:00; Fr,Sa 11:00-23:00; Su 12:00-22:00",
    "inserted_at": "2025-11-28T20:05:07.455126+00:00",
    "updated_at": "2025-11-28T20:05:07.455126+00:00",
    "latitude": 40.6118549,
    "longitude": -74.1576239,
    "url_slug": "la-piazza-pizzeria-restaurant"
  },
  {
    "uuid": "641c2252-fe96-45da-b8fc-ec34caa07825",
    "name": "Bobwhite Lunch and Supper Counter",
    "address": "94 Loisaida Ave, New York, NY 10009, United States",
    "geo_location": "POINT(-73.9789806 40.7236542)",
    "phone": "+1-212-228-2972",
    "email": "info@bobwhitecounter.com",
    "website": "https://www.bobwhitecounter.com/",
    "opening_hours": "Mo-Su 11:00-21:00",
    "inserted_at": "2025-11-28T20:05:07.455126+00:00",
    "updated_at": "2025-11-28T20:05:07.455126+00:00",
    "latitude": 40.7236542,
    "longitude": -73.9789806,
    "url_slug": "bobwhite-lunch-and-supper-counter"
  },
  {
    "uuid": "b8b7780d-1072-4cd8-af73-912a448224a5",
    "name": "Llama Inn",
    "address": "50, Withers Street, 11211",
    "geo_location": "POINT(-73.9504137 40.716681)",
    "phone": "+1-718-387-3434",
    "email": "events@llamainnnyc.com",
    "website": "https://www.llamainnnyc.com",
    "opening_hours": "Mo-We 17:30-22:00; Th-Fr 17:30-23:00; Sa 11:00-14:30,17:30-23:00; Su 11:00-14:30,17:30-22:00",
    "inserted_at": "2025-11-28T20:05:07.455126+00:00",
    "updated_at": "2025-11-28T20:05:07.455126+00:00",
    "latitude": 40.716681,
    "longitude": -73.9504137,
    "url_slug": "llama-inn"
  },
  {
    "uuid": "2be16c15-dbb9-4bd6-a3d3-fa6e5054b5bd",
    "name": "Casino",
    "address": "171, East Broadway, New York, NY, 10002",
    "geo_location": "POINT(-73.9896705 40.7139367)",
    "phone": "+1-646-848-0101",
    "email": "info@casinonyc.info",
    "website": "https://www.casinonyc.info/",
    "opening_hours": "Tu-Sa 17:00-24:00",
    "inserted_at": "2025-11-28T20:05:07.455126+00:00",
    "updated_at": "2025-11-28T20:05:07.455126+00:00",
    "latitude": 40.7139367,
    "longitude": -73.9896705,
    "url_slug": "casino"
  }
]